{"type": "FeatureCollection", "name": "lopburi_province", "features": [{"type": "Feature", "geometry": {"type": "Polygon", "coordinates": [[[101.38202449100004, 15.33140254600005], [101.37002838000006, 15.59276466800003], [101.40355630400006, 15.739025724000044], [101.33632334300006, 15.75302154600007], [101.29901727700008, 15.380235601000038], [101.20543512900008, 15.319421657000078], [100.97704139900009, 15.336500673000046], [100.97474683200005, 15.416549141000075], [100.83096617000007, 15.56263414800003], [100.64446685800004, 15.417917830000022], [100.61759993700008, 15.246486641000047], [100.42748741400004, 15.061086905000025], [100.45794010500003, 14.721096421000027], [100.50341379100007, 14.669919633000063], [100.60228489700006, 14.655050733000053], [100.76665615400003, 14.796589375000053], [100.99056043500008, 14.740791122000076], [101.09706470300006, 14.908787693000022], [101.25776458200005, 14.912489447000041], [101.40022633700005, 15.073792757000035], [101.38202449100004, 15.33140254600005]]]}, "properties": {"prov_th": "ลพบุรี", "prov_en": "Lop Buri", "prov_code": "TH16"}}]}