{"type": "FeatureCollection", "name": "lopburi_tambon", "features": [{"type": "Feature", "geometry": {"type": "Polygon", "coordinates": [[[100.52075349800003, 14.748151840000048], [100.48809338800004, 14.74813398300006], [100.45794010500003, 14.721096421000027], [100.47545631500009, 14.703125087000046], [100.48657723700006, 14.699679495000055], [100.49540784200008, 14.700517950000062], [100.50402733400006, 14.685420902000033], [100.50341379100007, 14.669919633000063], [100.50833993800006, 14.673194754000065], [100.52440905300006, 14.704493592000063], [100.51645082600004, 14.737134278000042], [100.52075349800003, 14.748151840000048]]]}, "properties": {"prov_th": "ลพบุรี", "prov_en": "Lop Buri", "prov_code": "TH16", "amphoe_th": "ท่าวุ้ง", "amphoe_en": "Tha Wung", "amphoe_code": "TH1605", "tambon_th": "บ้านเบิก", "tambon_en": "Ban Boek", "tambon_code": "TH160510"}}, {"type": "Feature", "geometry": {"type": "Polygon", "coordinates": [[[100.53142499700004, 14.975840126000037], [100.51534170100007, 14.97706342500004], [100.47517789800008, 14.959761151000066], [100.46614358000005, 14.917226605000053], [100.51969836600006, 14.927803328000039], [100.53142499700004, 14.975840126000037]]]}, "properties": {"prov_th": "ลพบุรี", "prov_en": "Lop Buri", "prov_code": "TH16", "amphoe_th": "บ้านหมี่", "amphoe_en": "Ban Mi", "amphoe_code": "TH1606", "tambon_th": "บ้านชี", "tambon_en": "Ban Chi", "tambon_code": "TH160605"}}, {"type": "Feature", "geometry": {"type": "Polygon", "coordinates": [[[100.54637981800005, 14.698776698000074], [100.52440905300006, 14.704493592000063], [100.50833993800006, 14.673194754000065], [100.53559032300006, 14.666541735000067], [100.54128975700007, 14.669642982000028], [100.54637981800005, 14.698776698000074]]]}, "properties": {"prov_th": "ลพบุรี", "prov_en": "Lop Buri", "prov_code": "TH16", "amphoe_th": "เมืองลพบุรี", "amphoe_en": "Mueang Lop Buri", "amphoe_code": "TH1601", "tambon_th": "บ้านข่อย", "tambon_en": "Ban Khoi", "tambon_code": "TH160118"}}, {"type": "Feature", "geometry": {"type": "Polygon", "coordinates": [[[100.58478393200005, 15.009260392000044], [100.56909261500005, 15.079973952000046], [100.55728136400006, 15.070124376000024], [100.57693673400007, 15.003103271000043], [100.58478393200005, 15.009260392000044]]]}, "properties": {"prov_th": "ลพบุรี", "prov_en": "Lop Buri", "prov_code": "TH16", "amphoe_th": "บ้านหมี่", "amphoe_en": "Ban Mi", "amphoe_code": "TH1606", "tambon_th": "บ้านกล้วย", "tambon_en": "Ban Kluai", "tambon_code": "TH160603"}}, {"type": "Feature", "geometry": {"type": "Polygon", "coordinates": [[[100.96407181500007, 15.321373039000036], [100.95344478200008, 15.290952171000072], [100.98321150300006, 15.247262831000057], [100.97730986100004, 15.20613687100007], [101.00224072100008, 15.194908381000062], [101.03553111600007, 15.229629380000063], [101.10552324600008, 15.223178461000032], [101.08630036300008, 15.275647955000068], [100.96407181500007, 15.321373039000036]]]}, "properties": {"prov_th": "ลพบุรี", "prov_en": "Lop Buri", "prov_code": "TH16", "amphoe_th": "ชัยบาดาล", "amphoe_en": "Chai Badan", "amphoe_code": "TH1604", "tambon_th": "บ้านใหม่สามัคคี", "tambon_en": "Ban Mai Samakkhi", "tambon_code": "TH160419"}}, {"type": "Feature", "geometry": {"type": "Polygon", "coordinates": [[[100.54353468400006, 15.036533539000061], [100.54474560700004, 15.043309056000055], [100.53391694700008, 15.045958823000035], [100.54353468400006, 15.036533539000061]]]}, "properties": {"prov_th": "ลพบุรี", "prov_en": "Lop Buri", "prov_code": "TH16", "amphoe_th": "บ้านหมี่", "amphoe_en": "Ban Mi", "amphoe_code": "TH1606", "tambon_th": "บ้านหมี่", "tambon_en": "Ban Mi", "tambon_code": "TH160619"}}, {"type": "Feature", "geometry": {"type": "Polygon", "coordinates": [[[100.59789215200004, 15.020289049000041], [100.58035744900008, 15.085534714000062], [100.56909261500005, 15.079973952000046], [100.58478393200005, 15.009260392000044], [100.59789215200004, 15.020289049000041]]]}, "properties": {"prov_th": "ลพบุรี", "prov_en": "Lop Buri", "prov_code": "TH16", "amphoe_th": "บ้านหมี่", "amphoe_en": "Ban Mi", "amphoe_code": "TH1606", "tambon_th": "บ้านทราย", "tambon_en": "Ban Sai", "tambon_code": "TH160602"}}, {"type": "Feature", "geometry": {"type": "Polygon", "coordinates": [[[100.62716758500005, 15.098920286000066], [100.60543364000006, 15.102093474000071], [100.61060767300006, 15.036928458000034], [100.62355075800008, 15.036694500000067], [100.62716758500005, 15.098920286000066]]]}, "properties": {"prov_th": "ลพบุรี", "prov_en": "Lop Buri", "prov_code": "TH16", "amphoe_th": "บ้านหมี่", "amphoe_en": "Ban Mi", "amphoe_code": "TH1606", "tambon_th": "บางกะพี้", "tambon_en": "Bang Kaphi", "tambon_code": "TH160610"}}, {"type": "Feature", "geometry": {"type": "Polygon", "coordinates": [[[100.47104328000006, 14.984871958000042], [100.44729843900006, 14.996797488000027], [100.44917075400008, 14.942712291000078], [100.42128379900004, 14.92997256700005], [100.42200090200004, 14.922429691000048], [100.46614358000005, 14.917226605000053], [100.47517789800008, 14.959761151000066], [100.47104328000006, 14.984871958000042]]]}, "properties": {"prov_th": "ลพบุรี", "prov_en": "Lop Buri", "prov_code": "TH16", "amphoe_th": "บ้านหมี่", "amphoe_en": "Ban Mi", "amphoe_code": "TH1606", "tambon_th": "บางขาม", "tambon_en": "Bang Kham", "tambon_code": "TH160613"}}, {"type": "Feature", "geometry": {"type": "Polygon", "coordinates": [[[100.59569910800008, 14.843708173000039], [100.55821690700009, 14.885632655000052], [100.54436451900006, 14.84296555800006], [100.57904640700008, 14.785903675000043], [100.59417216800006, 14.798111924000068], [100.59569910800008, 14.843708173000039]]]}, "properties": {"prov_th": "ลพบุรี", "prov_en": "Lop Buri", "prov_code": "TH16", "amphoe_th": "เมืองลพบุรี", "amphoe_en": "Mueang Lop Buri", "amphoe_code": "TH1601", "tambon_th": "บางขันหมาก", "tambon_en": "Bang Khan Mak", "tambon_code": "TH160117"}}, {"type": "Feature", "geometry": {"type": "Polygon", "coordinates": [[[100.53529925300006, 14.826958152000032], [100.51398045700006, 14.833906592000062], [100.51300698300008, 14.833484611000074], [100.50518267100006, 14.793522838000058], [100.50284568300003, 14.785226011000077], [100.54387681500003, 14.776958308000076], [100.53529925300006, 14.826958152000032]]]}, "properties": {"prov_th": "ลพบุรี", "prov_en": "Lop Buri", "prov_code": "TH16", "amphoe_th": "ท่าวุ้ง", "amphoe_en": "Tha Wung", "amphoe_code": "TH1605", "tambon_th": "บางคู้", "tambon_en": "Bang Khu", "tambon_code": "TH160502"}}, {"type": "Feature", "geometry": {"type": "Polygon", "coordinates": [[[100.55821690700009, 14.885632655000052], [100.56312252500004, 14.942043639000076], [100.51969836600006, 14.927803328000039], [100.52431511600008, 14.886302950000072], [100.51480937600007, 14.85692603900003], [100.51398045700006, 14.833906592000062], [100.53529925300006, 14.826958152000032], [100.54436451900006, 14.84296555800006], [100.55821690700009, 14.885632655000052]]]}, "properties": {"prov_th": "ลพบุรี", "prov_en": "Lop Buri", "prov_code": "TH16", "amphoe_th": "ท่าวุ้ง", "amphoe_en": "Tha Wung", "amphoe_code": "TH1605", "tambon_th": "บางลี่", "tambon_en": "Bang Li", "tambon_code": "TH160504"}}, {"type": "Feature", "geometry": {"type": "Polygon", "coordinates": [[[100.46665288400004, 14.883155779000049], [100.42453674600006, 14.898431856000059], [100.42679392700006, 14.888316705000022], [100.45431854700007, 14.857026374000043], [100.46483601500006, 14.82168917000007], [100.51300698300008, 14.833484611000074], [100.51398045700006, 14.833906592000062], [100.51480937600007, 14.85692603900003], [100.49756867000008, 14.86425975900005], [100.46665288400004, 14.883155779000049]]]}, "properties": {"prov_th": "ลพบุรี", "prov_en": "Lop Buri", "prov_code": "TH16", "amphoe_th": "ท่าวุ้ง", "amphoe_en": "Tha Wung", "amphoe_code": "TH1605", "tambon_th": "บางงา", "tambon_en": "Bang Nga", "tambon_code": "TH160505"}}, {"type": "Feature", "geometry": {"type": "Polygon", "coordinates": [[[100.51534170100007, 14.97706342500004], [100.50508575300006, 15.03762697600007], [100.49805610800007, 15.034649217000037], [100.47104328000006, 14.984871958000042], [100.47517789800008, 14.959761151000066], [100.51534170100007, 14.97706342500004]]]}, "properties": {"prov_th": "ลพบุรี", "prov_en": "Lop Buri", "prov_code": "TH16", "amphoe_th": "บ้านหมี่", "amphoe_en": "Ban Mi", "amphoe_code": "TH1606", "tambon_th": "บางพึ่ง", "tambon_en": "Bang Phueng", "tambon_code": "TH160608"}}, {"type": "Feature", "geometry": {"type": "Polygon", "coordinates": [[[100.63348505600004, 15.34054074100004], [100.62988225800007, 15.34039412900006], [100.59011021800006, 15.26885898300003], [100.62022061000005, 15.242709923000064], [100.72252111500006, 15.305897024000046], [100.72322962000004, 15.321649647000072], [100.66825056500005, 15.316108349000046], [100.63348505600004, 15.34054074100004]]]}, "properties": {"prov_th": "ลพบุรี", "prov_en": "Lop Buri", "prov_code": "TH16", "amphoe_th": "หนองม่วง", "amphoe_en": "Nong Muang", "amphoe_code": "TH1611", "tambon_th": "บ่อทอง", "tambon_en": "Bo Thong", "tambon_code": "TH161102"}}, {"type": "Feature", "geometry": {"type": "Polygon", "coordinates": [[[101.23422988000004, 15.256280397000069], [101.19246913400008, 15.263823989000059], [101.16087718200004, 15.236571766000054], [101.16981775300007, 15.228408858000023], [101.21833301400005, 15.16406250600005], [101.26882534400005, 15.09187382500005], [101.32350686800004, 15.067719465000039], [101.28664194900006, 15.159828718000028], [101.28327410700007, 15.184623675000068], [101.22448747500005, 15.226741649000076], [101.23422988000004, 15.256280397000069]]]}, "properties": {"prov_th": "ลพบุรี", "prov_en": "Lop Buri", "prov_code": "TH16", "amphoe_th": "ชัยบาดาล", "amphoe_en": "Chai Badan", "amphoe_code": "TH1604", "tambon_th": "บัวชุม", "tambon_en": "Bua Chum", "tambon_code": "TH160406"}}, {"type": "Feature", "geometry": {"type": "Polygon", "coordinates": [[[101.10194822500006, 15.163708257000053], [101.07975431400007, 15.158441956000047], [101.08035914200008, 15.135312063000072], [101.03825011100008, 15.076875807000022], [101.08970231500007, 15.066231495000068], [101.09942806900006, 15.123552760000052], [101.10194822500006, 15.163708257000053]]]}, "properties": {"prov_th": "ลพบุรี", "prov_en": "Lop Buri", "prov_code": "TH16", "amphoe_th": "ชัยบาดาล", "amphoe_en": "Chai Badan", "amphoe_code": "TH1604", "tambon_th": "ชัยบาดาล", "tambon_en": "Chai Badan", "tambon_code": "TH160418"}}, {"type": "Feature", "geometry": {"type": "Polygon", "coordinates": [[[101.10552324600008, 15.223178461000032], [101.03553111600007, 15.229629380000063], [101.00224072100008, 15.194908381000062], [101.02032965800004, 15.166846189000069], [101.07508143000007, 15.171985851000045], [101.14094658600004, 15.22181487000006], [101.10552324600008, 15.223178461000032]]]}, "properties": {"prov_th": "ลพบุรี", "prov_en": "Lop Buri", "prov_code": "TH16", "amphoe_th": "ชัยบาดาล", "amphoe_en": "Chai Badan", "amphoe_code": "TH1604", "tambon_th": "ชัยนารายณ์", "tambon_en": "Chai Narai", "tambon_code": "TH160402"}}, {"type": "Feature", "geometry": {"type": "Polygon", "coordinates": [[[100.55108904100007, 15.070342530000062], [100.53724690900003, 15.074394533000032], [100.50527164300007, 15.075743001000035], [100.49711050300004, 15.075241733000041], [100.49805610800007, 15.034649217000037], [100.50508575300006, 15.03762697600007], [100.53391694700008, 15.045958823000035], [100.54474560700004, 15.043309056000055], [100.55108904100007, 15.070342530000062]]]}, "properties": {"prov_th": "ลพบุรี", "prov_en": "Lop Buri", "prov_code": "TH16", "amphoe_th": "บ้านหมี่", "amphoe_en": "Ban Mi", "amphoe_code": "TH1606", "tambon_th": "เชียงงา", "tambon_en": "Chiang Nga", "tambon_code": "TH160620"}}, {"type": "Feature", "geometry": {"type": "Polygon", "coordinates": [[[100.62022061000005, 15.242709923000064], [100.55229409000003, 15.191947666000033], [100.56707283000009, 15.19037835100005], [100.58206391600004, 15.189064857000062], [100.62760048300004, 15.183550233000062], [100.64942586000006, 15.203878764000024], [100.62022061000005, 15.242709923000064]]]}, "properties": {"prov_th": "ลพบุรี", "prov_en": "Lop Buri", "prov_code": "TH16", "amphoe_th": "บ้านหมี่", "amphoe_en": "Ban Mi", "amphoe_code": "TH1606", "tambon_th": "ชอนม่วง", "tambon_en": "Chon Muang", "tambon_code": "TH160615"}}, {"type": "Feature", "geometry": {"type": "Polygon", "coordinates": [[[101.01922575300006, 14.817952797000032], [100.95702091300006, 14.834595900000068], [100.96627103200007, 14.75151646300003], [100.99186363100006, 14.740451140000062], [101.02388084700004, 14.809935740000071], [101.01922575300006, 14.817952797000032]]]}, "properties": {"prov_th": "ลพบุรี", "prov_en": "Lop Buri", "prov_code": "TH16", "amphoe_th": "พัฒนานิคม", "amphoe_en": "Phatthana Nikhom", "amphoe_code": "TH1602", "tambon_th": "ชอนน้อย", "tambon_en": "Chon Noi", "tambon_code": "TH160206"}}, {"type": "Feature", "geometry": {"type": "Polygon", "coordinates": [[[100.75167841600006, 15.208556050000027], [100.68268094000007, 15.202924456000062], [100.64942586000006, 15.203878764000024], [100.62760048300004, 15.183550233000062], [100.63639866100004, 15.141052882000054], [100.71242360000008, 15.178831123000066], [100.76660977800003, 15.167610915000068], [100.77543058400005, 15.157106400000032], [100.75167841600006, 15.208556050000027]]]}, "properties": {"prov_th": "ลพบุรี", "prov_en": "Lop Buri", "prov_code": "TH16", "amphoe_th": "หนองม่วง", "amphoe_en": "Nong Muang", "amphoe_code": "TH1611", "tambon_th": "ชอนสารเดช", "tambon_en": "Chon Saradet", "tambon_code": "TH161106"}}, {"type": "Feature", "geometry": {"type": "Polygon", "coordinates": [[[100.72888118600008, 15.347968107000042], [100.72322962000004, 15.321649647000072], [100.72252111500006, 15.305897024000046], [100.71305700700003, 15.288008044000037], [100.76171735300005, 15.231592415000023], [100.78498117900006, 15.234230375000038], [100.82428774900006, 15.28065878700005], [100.80398800200004, 15.31488015900004], [100.74947054900008, 15.33706528700003], [100.72888118600008, 15.347968107000042]]]}, "properties": {"prov_th": "ลพบุรี", "prov_en": "Lop Buri", "prov_code": "TH16", "amphoe_th": "หนองม่วง", "amphoe_en": "Nong Muang", "amphoe_code": "TH1611", "tambon_th": "ชอนสมบูรณ์", "tambon_en": "Chon Sombun", "tambon_code": "TH161104"}}, {"type": "Feature", "geometry": {"type": "Polygon", "coordinates": [[[100.92901827100007, 14.834726408000051], [100.89814059600008, 14.84464788200006], [100.86229317000004, 14.840567174000057], [100.84812840500007, 14.797201615000063], [100.85219171500006, 14.786909606000052], [100.94363481200008, 14.741983173000051], [100.95947452200005, 14.743768713000065], [100.96627103200007, 14.75151646300003], [100.95702091300006, 14.834595900000068], [100.92901827100007, 14.834726408000051]]]}, "properties": {"prov_th": "ลพบุรี", "prov_en": "Lop Buri", "prov_code": "TH16", "amphoe_th": "พัฒนานิคม", "amphoe_en": "Phatthana Nikhom", "amphoe_code": "TH1602", "tambon_th": "ช่องสาริกา", "tambon_en": "Chong Sarika", "tambon_code": "TH160202"}}, {"type": "Feature", "geometry": {"type": "Polygon", "coordinates": [[[100.86557683400008, 14.972999639000022], [100.82393708200004, 14.976643263000028], [100.82649491200004, 14.936296627000047], [100.87994756900008, 14.903567212000041], [100.89814059600008, 14.84464788200006], [100.92901827100007, 14.834726408000051], [100.90998290100003, 14.960411427000054], [100.87403098600004, 14.971638503000065], [100.86557683400008, 14.972999639000022]]]}, "properties": {"prov_th": "ลพบุรี", "prov_en": "Lop Buri", "prov_code": "TH16", "amphoe_th": "พัฒนานิคม", "amphoe_en": "Phatthana Nikhom", "amphoe_code": "TH1602", "tambon_th": "ดีลัง", "tambon_en": "Di Lang", "tambon_code": "TH160204"}}, {"type": "Feature", "geometry": {"type": "Polygon", "coordinates": [[[100.62760048300004, 15.183550233000062], [100.58206391600004, 15.189064857000062], [100.60543364000006, 15.102093474000071], [100.62716758500005, 15.098920286000066], [100.64035445900004, 15.132507989000032], [100.63639866100004, 15.141052882000054], [100.62760048300004, 15.183550233000062]]]}, "properties": {"prov_th": "ลพบุรี", "prov_en": "Lop Buri", "prov_code": "TH16", "amphoe_th": "บ้านหมี่", "amphoe_en": "Ban Mi", "amphoe_code": "TH1606", "tambon_th": "ดอนดึง", "tambon_en": "Don Dueng", "tambon_code": "TH160614"}}, {"type": "Feature", "geometry": {"type": "Polygon", "coordinates": [[[100.62899944200007, 14.720576398000048], [100.61308750300009, 14.722388142000057], [100.61151349900007, 14.69685802600003], [100.61435057100005, 14.647072172000037], [100.63053203300007, 14.649993705000043], [100.65701483400005, 14.704447517000062], [100.65130188700005, 14.710297985000068], [100.62899944200007, 14.720576398000048]]]}, "properties": {"prov_th": "ลพบุรี", "prov_en": "Lop Buri", "prov_code": "TH16", "amphoe_th": "เมืองลพบุรี", "amphoe_en": "Mueang Lop Buri", "amphoe_code": "TH1601", "tambon_th": "ดอนโพธิ์", "tambon_en": "Don Pho", "tambon_code": "TH160111"}}, {"type": "Feature", "geometry": {"type": "Polygon", "coordinates": [[[100.69048133000007, 15.446337925000023], [100.65888786900007, 15.43537520600006], [100.63348505600004, 15.34054074100004], [100.66825056500005, 15.316108349000046], [100.72322962000004, 15.321649647000072], [100.72888118600008, 15.347968107000042], [100.72799825400006, 15.410203649000039], [100.69048133000007, 15.446337925000023]]]}, "properties": {"prov_th": "ลพบุรี", "prov_en": "Lop Buri", "prov_code": "TH16", "amphoe_th": "หนองม่วง", "amphoe_en": "Nong Muang", "amphoe_code": "TH1611", "tambon_th": "ดงดินแดง", "tambon_en": "Dong Din Daeng", "tambon_code": "TH161103"}}, {"type": "Feature", "geometry": {"type": "Polygon", "coordinates": [[[100.93150047800003, 15.14587055000004], [100.93475040200008, 15.166011316000038], [100.89844174300003, 15.148404226000025], [100.82674789500004, 15.153314798000054], [100.82482479800007, 15.150967602000037], [100.84050651600006, 15.084892719000038], [100.88757330500005, 15.091474133000077], [100.93150047800003, 15.14587055000004]]]}, "properties": {"prov_th": "ลพบุรี", "prov_en": "Lop Buri", "prov_code": "TH16", "amphoe_th": "โคกสำโรง", "amphoe_en": "Khok Samrong", "amphoe_code": "TH1603", "tambon_th": "ดงมะรุม", "tambon_en": "Dong Marum", "tambon_code": "TH160310"}}, {"type": "Feature", "geometry": {"type": "Polygon", "coordinates": [[[100.64035445900004, 15.132507989000032], [100.62716758500005, 15.098920286000066], [100.62355075800008, 15.036694500000067], [100.65622265800005, 15.063387950000049], [100.65786228900004, 15.066014513000027], [100.64339686300008, 15.129926263000073], [100.64035445900004, 15.132507989000032]]]}, "properties": {"prov_th": "ลพบุรี", "prov_en": "Lop Buri", "prov_code": "TH16", "amphoe_th": "บ้านหมี่", "amphoe_en": "Ban Mi", "amphoe_code": "TH1606", "tambon_th": "ดงพลับ", "tambon_en": "Dong Phlap", "tambon_code": "TH160604"}}, {"type": "Feature", "geometry": {"type": "Polygon", "coordinates": [[[100.60543364000006, 15.102093474000071], [100.58035744900008, 15.085534714000062], [100.59789215200004, 15.020289049000041], [100.61060767300006, 15.036928458000034], [100.60543364000006, 15.102093474000071]]]}, "properties": {"prov_th": "ลพบุรี", "prov_en": "Lop Buri", "prov_code": "TH16", "amphoe_th": "บ้านหมี่", "amphoe_en": "Ban Mi", "amphoe_code": "TH1606", "tambon_th": "หินปัก", "tambon_en": "Hin Pak", "tambon_code": "TH160607"}}, {"type": "Feature", "geometry": {"type": "Polygon", "coordinates": [[[101.32350686800004, 15.067719465000039], [101.26882534400005, 15.09187382500005], [101.22981787400005, 15.074748145000058], [101.26133236900006, 15.056057180000039], [101.27267310400003, 14.993820526000036], [101.33157233100007, 14.982754885000077], [101.36307893800006, 15.046971339000038], [101.32350686800004, 15.067719465000039]]]}, "properties": {"prov_th": "ลพบุรี", "prov_en": "Lop Buri", "prov_code": "TH16", "amphoe_th": "ท่าหลวง", "amphoe_en": "Tha Luang", "amphoe_code": "TH1607", "tambon_th": "หัวลำ", "tambon_en": "Hua Lam", "tambon_code": "TH160706"}}, {"type": "Feature", "geometry": {"type": "Polygon", "coordinates": [[[100.50518267100006, 14.793522838000058], [100.48262596100005, 14.81130984400005], [100.46821928600008, 14.798215829000071], [100.47225453800007, 14.76859534700003], [100.48809338800004, 14.74813398300006], [100.52075349800003, 14.748151840000048], [100.50284568300003, 14.785226011000077], [100.50518267100006, 14.793522838000058]]]}, "properties": {"prov_th": "ลพบุรี", "prov_en": "Lop Buri", "prov_code": "TH16", "amphoe_th": "ท่าวุ้ง", "amphoe_en": "Tha Wung", "amphoe_code": "TH1605", "tambon_th": "หัวสำโรง", "tambon_en": "Hua Samrong", "tambon_code": "TH160508"}}, {"type": "Feature", "geometry": {"type": "Polygon", "coordinates": [[[101.00224072100008, 15.194908381000062], [100.97730986100004, 15.20613687100007], [100.93475040200008, 15.166011316000038], [100.98481081700004, 15.192869570000028], [101.02395409500008, 15.107114005000028], [101.04819065500004, 15.143923610000058], [101.08035914200008, 15.135312063000072], [101.07975431400007, 15.158441956000047], [101.07508143000007, 15.171985851000045], [101.02032965800004, 15.166846189000069], [101.00224072100008, 15.194908381000062]]]}, "properties": {"prov_th": "ลพบุรี", "prov_en": "Lop Buri", "prov_code": "TH16", "amphoe_th": "ชัยบาดาล", "amphoe_en": "Chai Badan", "amphoe_code": "TH1604", "tambon_th": "ห้วยหิน", "tambon_en": "Huai Hin", "tambon_code": "TH160404"}}, {"type": "Feature", "geometry": {"type": "Polygon", "coordinates": [[[101.27267310400003, 14.993820526000036], [101.20622347400007, 14.983806103000063], [101.15837129200008, 14.920344059000058], [101.18262827800004, 14.916346630000078], [101.21931341200008, 14.919249235000052], [101.25776458200005, 14.912489447000041], [101.32866760700006, 14.96500601100007], [101.33157233100007, 14.982754885000077], [101.27267310400003, 14.993820526000036]]]}, "properties": {"prov_th": "ลพบุรี", "prov_en": "Lop Buri", "prov_code": "TH16", "amphoe_th": "พัฒนานิคม", "amphoe_en": "Phatthana Nikhom", "amphoe_code": "TH1602", "tambon_th": "ห้วยขุนราม", "tambon_en": "Huai Khun Ram", "tambon_code": "TH160208"}}, {"type": "Feature", "geometry": {"type": "Polygon", "coordinates": [[[100.72649904800005, 14.986394508000046], [100.66934408500003, 15.022507032000021], [100.62377040800004, 14.97504137900006], [100.62131517700004, 14.968449617000033], [100.61138914500003, 14.936158964000072], [100.72923992600005, 14.953152315000068], [100.72649904800005, 14.986394508000046]]]}, "properties": {"prov_th": "ลพบุรี", "prov_en": "Lop Buri", "prov_code": "TH16", "amphoe_th": "โคกสำโรง", "amphoe_en": "Khok Samrong", "amphoe_code": "TH1603", "tambon_th": "ห้วยโป่ง", "tambon_en": "Huai Pong", "tambon_code": "TH160305"}}, {"type": "Feature", "geometry": {"type": "Polygon", "coordinates": [[[100.80943000000008, 15.187827136000067], [100.76608036400006, 15.216764736000073], [100.75167841600006, 15.208556050000027], [100.77543058400005, 15.157106400000032], [100.78510174100006, 15.14125725200006], [100.80943000000008, 15.187827136000067]]]}, "properties": {"prov_th": "ลพบุรี", "prov_en": "Lop Buri", "prov_code": "TH16", "amphoe_th": "สระโบสถ์", "amphoe_en": "Sa Bot", "amphoe_code": "TH1608", "tambon_th": "ห้วยใหญ่", "tambon_en": "Huai Yai", "tambon_code": "TH160804"}}, {"type": "Feature", "geometry": {"type": "Polygon", "coordinates": [[[101.13756324400003, 15.025091882000027], [101.08803702900008, 15.056335706000027], [101.04123084100007, 15.025294789000043], [101.06557447100005, 14.967513198000063], [101.07232814300005, 14.996999383000059], [101.11931923400005, 14.980722972000024], [101.12983855000004, 14.998090010000055], [101.13756324400003, 15.025091882000027]]]}, "properties": {"prov_th": "ลพบุรี", "prov_en": "Lop Buri", "prov_code": "TH16", "amphoe_th": "ท่าหลวง", "amphoe_en": "Tha Luang", "amphoe_code": "TH1607", "tambon_th": "แก่งผักกูด", "tambon_en": "Kaeng Phak Kut", "tambon_code": "TH160702"}}, {"type": "Feature", "geometry": {"type": "Polygon", "coordinates": [[[101.02395409500008, 15.107114005000028], [100.98481081700004, 15.192869570000028], [100.93475040200008, 15.166011316000038], [100.93150047800003, 15.14587055000004], [100.93276761600004, 15.102403486000071], [100.90339445500007, 15.039148216000058], [100.96927218800005, 15.056294913000045], [101.02395409500008, 15.107114005000028]]]}, "properties": {"prov_th": "ลพบุรี", "prov_en": "Lop Buri", "prov_code": "TH16", "amphoe_th": "ชัยบาดาล", "amphoe_en": "Chai Badan", "amphoe_code": "TH1604", "tambon_th": "เขาแหลม", "tambon_en": "Khao Laem", "tambon_code": "TH160422"}}, {"type": "Feature", "geometry": {"type": "Polygon", "coordinates": [[[101.40014445000008, 15.157556767000074], [101.38919747300008, 15.156891539000071], [101.35265947800008, 15.13475724400007], [101.36307893800006, 15.046971339000038], [101.40022633700005, 15.073792757000035], [101.39967676900005, 15.101791934000062], [101.40014445000008, 15.157556767000074]]]}, "properties": {"prov_th": "ลพบุรี", "prov_en": "Lop Buri", "prov_code": "TH16", "amphoe_th": "ลำสนธิ", "amphoe_en": "Lam Sonthi", "amphoe_code": "TH1610", "tambon_th": "เขาน้อย", "tambon_en": "Khao Noi", "tambon_code": "TH161006"}}, {"type": "Feature", "geometry": {"type": "Polygon", "coordinates": [[[100.72923992600005, 14.953152315000068], [100.61138914500003, 14.936158964000072], [100.58788382900008, 14.925716049000073], [100.59765562900009, 14.886608525000042], [100.64046564300008, 14.85715409200003], [100.68302906400004, 14.85606886100004], [100.74134828200005, 14.897668828000064], [100.75122472400005, 14.932597248000036], [100.72923992600005, 14.953152315000068]]]}, "properties": {"prov_th": "ลพบุรี", "prov_en": "Lop Buri", "prov_code": "TH16", "amphoe_th": "เมืองลพบุรี", "amphoe_en": "Mueang Lop Buri", "amphoe_code": "TH1601", "tambon_th": "เขาพระงาม", "tambon_en": "Khao Phra Ngam", "tambon_code": "TH160105"}}, {"type": "Feature", "geometry": {"type": "Polygon", "coordinates": [[[101.37753607200005, 15.399426650000066], [101.34935303000003, 15.390802887000063], [101.30277065200005, 15.430735279000032], [101.29901727700008, 15.380235601000038], [101.30356881900008, 15.344568794000054], [101.35316368300005, 15.321498792000057], [101.35286344700006, 15.377713466000046], [101.38163145500005, 15.38802430100003], [101.37753607200005, 15.399426650000066]]]}, "properties": {"prov_th": "ลพบุรี", "prov_en": "Lop Buri", "prov_code": "TH16", "amphoe_th": "ลำสนธิ", "amphoe_en": "Lam Sonthi", "amphoe_code": "TH1610", "tambon_th": "เขารวก", "tambon_en": "Khao Ruak", "tambon_code": "TH161005"}}, {"type": "Feature", "geometry": {"type": "Polygon", "coordinates": [[[100.68302906400004, 14.85606886100004], [100.64046564300008, 14.85715409200003], [100.64294807700009, 14.845786908000036], [100.64769507100004, 14.823906969000063], [100.65837005100008, 14.799468913000055], [100.70208229600007, 14.811217421000038], [100.68302906400004, 14.85606886100004]]]}, "properties": {"prov_th": "ลพบุรี", "prov_en": "Lop Buri", "prov_code": "TH16", "amphoe_th": "เมืองลพบุรี", "amphoe_en": "Mueang Lop Buri", "amphoe_code": "TH1601", "tambon_th": "เขาสามยอด", "tambon_en": "Khao Sam Yot", "tambon_code": "TH160106"}}, {"type": "Feature", "geometry": {"type": "Polygon", "coordinates": [[[100.46614358000005, 14.917226605000053], [100.42200090200004, 14.922429691000048], [100.42453674600006, 14.898431856000059], [100.46665288400004, 14.883155779000049], [100.49444299400005, 14.905720504000044], [100.52431511600008, 14.886302950000072], [100.51969836600006, 14.927803328000039], [100.46614358000005, 14.917226605000053]]]}, "properties": {"prov_th": "ลพบุรี", "prov_en": "Lop Buri", "prov_code": "TH16", "amphoe_th": "ท่าวุ้ง", "amphoe_en": "Tha Wung", "amphoe_code": "TH1605", "tambon_th": "เขาสมอคอน", "tambon_en": "Khao Samo Khon", "tambon_code": "TH160507"}}, {"type": "Feature", "geometry": {"type": "Polygon", "coordinates": [[[100.82393708200004, 14.976643263000028], [100.78339578300006, 15.018187424000075], [100.76720299300007, 15.07167118500007], [100.71732968200007, 15.039630048000049], [100.72649904800005, 14.986394508000046], [100.72923992600005, 14.953152315000068], [100.75122472400005, 14.932597248000036], [100.82649491200004, 14.936296627000047], [100.82393708200004, 14.976643263000028]]]}, "properties": {"prov_th": "ลพบุรี", "prov_en": "Lop Buri", "prov_code": "TH16", "amphoe_th": "โคกสำโรง", "amphoe_en": "Khok Samrong", "amphoe_code": "TH1603", "tambon_th": "คลองเกตุ", "tambon_en": "Khlong Ket", "tambon_code": "TH160306"}}, {"type": "Feature", "geometry": {"type": "Polygon", "coordinates": [[[100.83588083600006, 15.389943310000035], [100.83237390300008, 15.452689307000071], [100.78078756700006, 15.46522698800004], [100.76831628200006, 15.462582311000062], [100.69048133000007, 15.446337925000023], [100.72799825400006, 15.410203649000039], [100.72888118600008, 15.347968107000042], [100.74947054900008, 15.33706528700003], [100.81736015200005, 15.355254095000078], [100.83588083600006, 15.389943310000035]]]}, "properties": {"prov_th": "ลพบุรี", "prov_en": "Lop Buri", "prov_code": "TH16", "amphoe_th": "โคกเจริญ", "amphoe_en": "Khok Charoen", "amphoe_code": "TH1609", "tambon_th": "โคกเจริญ", "tambon_en": "Khok Charoen", "tambon_code": "TH160901"}}, {"type": "Feature", "geometry": {"type": "Polygon", "coordinates": [[[100.58788382900008, 14.925716049000073], [100.56312252500004, 14.942043639000076], [100.55821690700009, 14.885632655000052], [100.59569910800008, 14.843708173000039], [100.59765562900009, 14.886608525000042], [100.58788382900008, 14.925716049000073]]]}, "properties": {"prov_th": "ลพบุรี", "prov_en": "Lop Buri", "prov_code": "TH16", "amphoe_th": "เมืองลพบุรี", "amphoe_en": "Mueang Lop Buri", "amphoe_code": "TH1601", "tambon_th": "โคกกะเทียม", "tambon_en": "Khok Kathiam", "tambon_code": "TH160107"}}, {"type": "Feature", "geometry": {"type": "Polygon", "coordinates": [[[100.66444203000003, 14.741226134000044], [100.63021905200009, 14.773823246000063], [100.62464781400007, 14.746724620000066], [100.62899944200007, 14.720576398000048], [100.65130188700005, 14.710297985000068], [100.67025437500007, 14.739611883000066], [100.66444203000003, 14.741226134000044]]]}, "properties": {"prov_th": "ลพบุรี", "prov_en": "Lop Buri", "prov_code": "TH16", "amphoe_th": "เมืองลพบุรี", "amphoe_en": "Mueang Lop Buri", "amphoe_code": "TH1601", "tambon_th": "โคกลำพาน", "tambon_en": "Khok Lamphan", "tambon_code": "TH160108"}}, {"type": "Feature", "geometry": {"type": "Polygon", "coordinates": [[[100.96927218800005, 15.056294913000045], [100.90339445500007, 15.039148216000058], [100.87403098600004, 14.971638503000065], [100.90998290100003, 14.960411427000054], [100.96858871300009, 14.962811914000042], [101.01169457900005, 14.925076448000027], [101.06557447100005, 14.967513198000063], [101.04123084100007, 15.025294789000043], [101.04163961000006, 15.029856683000048], [100.96927218800005, 15.056294913000045]]]}, "properties": {"prov_th": "ลพบุรี", "prov_en": "Lop Buri", "prov_code": "TH16", "amphoe_th": "พัฒนานิคม", "amphoe_en": "Phatthana Nikhom", "amphoe_code": "TH1602", "tambon_th": "โคกสลุง", "tambon_en": "Khok Salung", "tambon_code": "TH160205"}}, {"type": "Feature", "geometry": {"type": "Polygon", "coordinates": [[[100.49756867000008, 14.86425975900005], [100.49444299400005, 14.905720504000044], [100.46665288400004, 14.883155779000049], [100.49756867000008, 14.86425975900005]]]}, "properties": {"prov_th": "ลพบุรี", "prov_en": "Lop Buri", "prov_code": "TH16", "amphoe_th": "ท่าวุ้ง", "amphoe_en": "Tha Wung", "amphoe_code": "TH1605", "tambon_th": "โคกสลุด", "tambon_en": "Khok Salut", "tambon_code": "TH160506"}}, {"type": "Feature", "geometry": {"type": "Polygon", "coordinates": [[[100.88927925200005, 15.363830688000064], [100.83588083600006, 15.389943310000035], [100.81736015200005, 15.355254095000078], [100.74947054900008, 15.33706528700003], [100.80398800200004, 15.31488015900004], [100.81687511200005, 15.332440361000067], [100.92280120200007, 15.300960006000025], [100.88927925200005, 15.363830688000064]]]}, "properties": {"prov_th": "ลพบุรี", "prov_en": "Lop Buri", "prov_code": "TH16", "amphoe_th": "โคกเจริญ", "amphoe_en": "Khok Charoen", "amphoe_code": "TH1609", "tambon_th": "โคกแสมสาร", "tambon_en": "Khok Samae San", "tambon_code": "TH160905"}}, {"type": "Feature", "geometry": {"type": "Polygon", "coordinates": [[[100.75928608800007, 15.084407597000052], [100.71298667100007, 15.103508352000063], [100.70505522400003, 15.098831442000062], [100.69729399000005, 15.087297939000052], [100.70332881700006, 15.055308381000032], [100.71732968200007, 15.039630048000049], [100.76720299300007, 15.07167118500007], [100.75928608800007, 15.084407597000052]]]}, "properties": {"prov_th": "ลพบุรี", "prov_en": "Lop Buri", "prov_code": "TH16", "amphoe_th": "โคกสำโรง", "amphoe_en": "Khok Samrong", "amphoe_code": "TH1603", "tambon_th": "โคกสำโรง", "tambon_en": "Khok Samrong", "tambon_code": "TH160301"}}, {"type": "Feature", "geometry": {"type": "Polygon", "coordinates": [[[100.82649491200004, 14.936296627000047], [100.75122472400005, 14.932597248000036], [100.74134828200005, 14.897668828000064], [100.77896790700004, 14.848869901000057], [100.76665615400003, 14.796589375000053], [100.79398913300008, 14.791430503000072], [100.84812840500007, 14.797201615000063], [100.86229317000004, 14.840567174000057], [100.89814059600008, 14.84464788200006], [100.87994756900008, 14.903567212000041], [100.82649491200004, 14.936296627000047]]]}, "properties": {"prov_th": "ลพบุรี", "prov_en": "Lop Buri", "prov_code": "TH16", "amphoe_th": "เมืองลพบุรี", "amphoe_en": "Mueang Lop Buri", "amphoe_code": "TH1601", "tambon_th": "โคกตูม", "tambon_en": "Khok Tum", "tambon_code": "TH160109"}}, {"type": "Feature", "geometry": {"type": "Polygon", "coordinates": [[[100.76660977800003, 15.167610915000068], [100.71242360000008, 15.178831123000066], [100.73149059400004, 15.124354046000064], [100.71298667100007, 15.103508352000063], [100.75928608800007, 15.084407597000052], [100.75818169700005, 15.09617264600007], [100.76660977800003, 15.167610915000068]]]}, "properties": {"prov_th": "ลพบุรี", "prov_en": "Lop Buri", "prov_code": "TH16", "amphoe_th": "โคกสำโรง", "amphoe_en": "Khok Samrong", "amphoe_code": "TH1603", "tambon_th": "เกาะแก้ว", "tambon_en": "Ko Kaeo", "tambon_code": "TH160302"}}, {"type": "Feature", "geometry": {"type": "Polygon", "coordinates": [[[101.29901727700008, 15.380235601000038], [101.22593035300008, 15.340971255000056], [101.20543512900008, 15.319421657000078], [101.20483536700004, 15.318605633000061], [101.19246913400008, 15.263823989000059], [101.23422988000004, 15.256280397000069], [101.29270356000006, 15.32899750000007], [101.30356881900008, 15.344568794000054], [101.29901727700008, 15.380235601000038]]]}, "properties": {"prov_th": "ลพบุรี", "prov_en": "Lop Buri", "prov_code": "TH16", "amphoe_th": "ชัยบาดาล", "amphoe_en": "Chai Badan", "amphoe_code": "TH1604", "tambon_th": "เกาะรัง", "tambon_en": "Ko Rang", "tambon_code": "TH160412"}}, {"type": "Feature", "geometry": {"type": "Polygon", "coordinates": [[[100.68915345100004, 14.780009453000048], [100.66191246100004, 14.78960879400006], [100.66444203000003, 14.741226134000044], [100.67025437500007, 14.739611883000066], [100.71219121200005, 14.761875834000023], [100.68915345100004, 14.780009453000048]]]}, "properties": {"prov_th": "ลพบุรี", "prov_en": "Lop Buri", "prov_code": "TH16", "amphoe_th": "เมืองลพบุรี", "amphoe_en": "Mueang Lop Buri", "amphoe_code": "TH1601", "tambon_th": "กกโก", "tambon_en": "Kok Ko", "tambon_code": "TH160103"}}, {"type": "Feature", "geometry": {"type": "Polygon", "coordinates": [[[100.61151349900007, 14.69685802600003], [100.58186153900004, 14.68435317500007], [100.58072299000008, 14.664360891000058], [100.60228489700006, 14.655050733000053], [100.61435057100005, 14.647072172000037], [100.61151349900007, 14.69685802600003]]]}, "properties": {"prov_th": "ลพบุรี", "prov_en": "Lop Buri", "prov_code": "TH16", "amphoe_th": "เมืองลพบุรี", "amphoe_en": "Mueang Lop Buri", "amphoe_code": "TH1601", "tambon_th": "โก่งธนู", "tambon_en": "Kong Thanu", "tambon_code": "TH160104"}}, {"type": "Feature", "geometry": {"type": "Polygon", "coordinates": [[[101.40442895400008, 15.739287339000043], [101.33632334300006, 15.75302154600007], [101.33666076600008, 15.723157557000036], [101.36006119500007, 15.688499464000074], [101.33953530500008, 15.654365202000065], [101.31081139000008, 15.575458534000063], [101.30439086500007, 15.519682568000064], [101.30226546700004, 15.502778853000052], [101.30277065200005, 15.430735279000032], [101.34935303000003, 15.390802887000063], [101.37753607200005, 15.399426650000066], [101.38570709900006, 15.486544810000055], [101.37345562300004, 15.54036181500004], [101.37002838000006, 15.59276466800003], [101.39377022200006, 15.677216376000047], [101.40442895400008, 15.739287339000043]]]}, "properties": {"prov_th": "ลพบุรี", "prov_en": "Lop Buri", "prov_code": "TH16", "amphoe_th": "ลำสนธิ", "amphoe_en": "Lam Sonthi", "amphoe_code": "TH1610", "tambon_th": "กุดตาเพชร", "tambon_en": "Kut Ta Phet", "tambon_code": "TH161004"}}, {"type": "Feature", "geometry": {"type": "Polygon", "coordinates": [[[101.16087718200004, 15.236571766000054], [101.14094658600004, 15.22181487000006], [101.07508143000007, 15.171985851000045], [101.07975431400007, 15.158441956000047], [101.10194822500006, 15.163708257000053], [101.14467990400004, 15.178443468000069], [101.16981775300007, 15.228408858000023], [101.16087718200004, 15.236571766000054]]]}, "properties": {"prov_th": "ลพบุรี", "prov_en": "Lop Buri", "prov_code": "TH16", "amphoe_th": "ชัยบาดาล", "amphoe_en": "Chai Badan", "amphoe_code": "TH1604", "tambon_th": "ลำนารายณ์", "tambon_en": "Lam Narai", "tambon_code": "TH160401"}}, {"type": "Feature", "geometry": {"type": "Polygon", "coordinates": [[[101.38574495200004, 15.346047781000038], [101.38163145500005, 15.38802430100003], [101.35286344700006, 15.377713466000046], [101.35316368300005, 15.321498792000057], [101.38574495200004, 15.346047781000038]]]}, "properties": {"prov_th": "ลพบุรี", "prov_en": "Lop Buri", "prov_code": "TH16", "amphoe_th": "ลำสนธิ", "amphoe_en": "Lam Sonthi", "amphoe_code": "TH1610", "tambon_th": "ลำสนธิ", "tambon_en": "Lam Sonthi", "tambon_code": "TH161001"}}, {"type": "Feature", "geometry": {"type": "Polygon", "coordinates": [[[100.54387681500003, 14.776958308000076], [100.50284568300003, 14.785226011000077], [100.52075349800003, 14.748151840000048], [100.51645082600004, 14.737134278000042], [100.56278456200005, 14.766118122000023], [100.54387681500003, 14.776958308000076]]]}, "properties": {"prov_th": "ลพบุรี", "prov_en": "Lop Buri", "prov_code": "TH16", "amphoe_th": "ท่าวุ้ง", "amphoe_en": "Tha Wung", "amphoe_code": "TH1605", "tambon_th": "ลาดสาลี่", "tambon_en": "Lat Sali", "tambon_code": "TH160509"}}, {"type": "Feature", "geometry": {"type": "Polygon", "coordinates": [[[100.68555328400004, 15.045350405000022], [100.65622265800005, 15.063387950000049], [100.62355075800008, 15.036694500000067], [100.61060767300006, 15.036928458000034], [100.62377040800004, 14.97504137900006], [100.66934408500003, 15.022507032000021], [100.68555328400004, 15.045350405000022]]]}, "properties": {"prov_th": "ลพบุรี", "prov_en": "Lop Buri", "prov_code": "TH16", "amphoe_th": "โคกสำโรง", "amphoe_en": "Khok Samrong", "amphoe_code": "TH1603", "tambon_th": "หลุมข้าว", "tambon_en": "Lum Khao", "tambon_code": "TH160304"}}, {"type": "Feature", "geometry": {"type": "Polygon", "coordinates": [[[100.92280120200007, 15.300960006000025], [100.81687511200005, 15.332440361000067], [100.80398800200004, 15.31488015900004], [100.82428774900006, 15.28065878700005], [100.78498117900006, 15.234230375000038], [100.81364405600004, 15.228103267000051], [100.89391231400003, 15.259161988000074], [100.93172878700005, 15.293443824000065], [100.92280120200007, 15.300960006000025]]]}, "properties": {"prov_th": "ลพบุรี", "prov_en": "Lop Buri", "prov_code": "TH16", "amphoe_th": "สระโบสถ์", "amphoe_en": "Sa Bot", "amphoe_code": "TH1608", "tambon_th": "มหาโพธิ", "tambon_en": "Maha Phot", "tambon_code": "TH160802"}}, {"type": "Feature", "geometry": {"type": "Polygon", "coordinates": [[[100.49805610800007, 15.034649217000037], [100.49711050300004, 15.075241733000041], [100.44671152400008, 15.055237117000047], [100.44688555300007, 15.003178427000023], [100.44729843900006, 14.996797488000027], [100.47104328000006, 14.984871958000042], [100.49805610800007, 15.034649217000037]]]}, "properties": {"prov_th": "ลพบุรี", "prov_en": "Lop Buri", "prov_code": "TH16", "amphoe_th": "บ้านหมี่", "amphoe_en": "Ban Mi", "amphoe_code": "TH1606", "tambon_th": "มหาสอน", "tambon_en": "Mahason", "tambon_code": "TH160618"}}, {"type": "Feature", "geometry": {"type": "Polygon", "coordinates": [[[101.08970231500007, 15.066231495000068], [101.03825011100008, 15.076875807000022], [101.04163961000006, 15.029856683000048], [101.04123084100007, 15.025294789000043], [101.08803702900008, 15.056335706000027], [101.08970231500007, 15.066231495000068]]]}, "properties": {"prov_th": "ลพบุรี", "prov_en": "Lop Buri", "prov_code": "TH16", "amphoe_th": "ชัยบาดาล", "amphoe_en": "Chai Badan", "amphoe_code": "TH1604", "tambon_th": "มะกอกหวาน", "tambon_en": "Makok Wan", "tambon_code": "TH160408"}}, {"type": "Feature", "geometry": {"type": "Polygon", "coordinates": [[[101.11931923400005, 14.980722972000024], [101.07232814300005, 14.996999383000059], [101.06557447100005, 14.967513198000063], [101.01169457900005, 14.925076448000027], [101.01750081800009, 14.876498376000029], [101.05365101100006, 14.921733423000035], [101.08485507900008, 14.890718330000027], [101.09076946400006, 14.899829323000063], [101.11931923400005, 14.980722972000024]]]}, "properties": {"prov_th": "ลพบุรี", "prov_en": "Lop Buri", "prov_code": "TH16", "amphoe_th": "พัฒนานิคม", "amphoe_en": "Phatthana Nikhom", "amphoe_code": "TH1602", "tambon_th": "มะนาวหวาน", "tambon_en": "Manao Wan", "tambon_code": "TH160203"}}, {"type": "Feature", "geometry": {"type": "Polygon", "coordinates": [[[101.08035914200008, 15.135312063000072], [101.04819065500004, 15.143923610000058], [101.02395409500008, 15.107114005000028], [100.96927218800005, 15.056294913000045], [101.04163961000006, 15.029856683000048], [101.03825011100008, 15.076875807000022], [101.08035914200008, 15.135312063000072]]]}, "properties": {"prov_th": "ลพบุรี", "prov_en": "Lop Buri", "prov_code": "TH16", "amphoe_th": "ชัยบาดาล", "amphoe_en": "Chai Badan", "amphoe_code": "TH1604", "tambon_th": "ม่วงค่อม", "tambon_en": "Muang Khom", "tambon_code": "TH160405"}}, {"type": "Feature", "geometry": {"type": "Polygon", "coordinates": [[[100.51480937600007, 14.85692603900003], [100.52431511600008, 14.886302950000072], [100.49444299400005, 14.905720504000044], [100.49756867000008, 14.86425975900005], [100.51480937600007, 14.85692603900003]]]}, "properties": {"prov_th": "ลพบุรี", "prov_en": "Lop Buri", "prov_code": "TH16", "amphoe_th": "ท่าวุ้ง", "amphoe_en": "Tha Wung", "amphoe_code": "TH1605", "tambon_th": "มุจลินท์", "tambon_en": "Mutchalin", "tambon_code": "TH160511"}}, {"type": "Feature", "geometry": {"type": "Polygon", "coordinates": [[[101.31961879200009, 15.226458797000078], [101.29810731600008, 15.287170223000032], [101.26286445900007, 15.244323673000054], [101.30354744700008, 15.20604318900007], [101.28327410700007, 15.184623675000068], [101.28664194900006, 15.159828718000028], [101.33698836700006, 15.176859540000066], [101.31961879200009, 15.226458797000078]]]}, "properties": {"prov_th": "ลพบุรี", "prov_en": "Lop Buri", "prov_code": "TH16", "amphoe_th": "ชัยบาดาล", "amphoe_en": "Chai Badan", "amphoe_code": "TH1604", "tambon_th": "นาโสม", "tambon_en": "Na Som", "tambon_code": "TH160410"}}, {"type": "Feature", "geometry": {"type": "Polygon", "coordinates": [[[101.20186377700009, 14.996214302000055], [101.12983855000004, 14.998090010000055], [101.11931923400005, 14.980722972000024], [101.09076946400006, 14.899829323000063], [101.18262827800004, 14.916346630000078], [101.15837129200008, 14.920344059000058], [101.20622347400007, 14.983806103000063], [101.20186377700009, 14.996214302000055]]]}, "properties": {"prov_th": "ลพบุรี", "prov_en": "Lop Buri", "prov_code": "TH16", "amphoe_th": "พัฒนานิคม", "amphoe_en": "Phatthana Nikhom", "amphoe_code": "TH1602", "tambon_th": "น้ำสุด", "tambon_en": "Nam Sut", "tambon_code": "TH160209"}}, {"type": "Feature", "geometry": {"type": "Polygon", "coordinates": [[[100.61308750300009, 14.722388142000057], [100.58050849400007, 14.72339213500004], [100.56960996500004, 14.710242191000077], [100.58186153900004, 14.68435317500007], [100.61151349900007, 14.69685802600003], [100.61308750300009, 14.722388142000057]]]}, "properties": {"prov_th": "ลพบุรี", "prov_en": "Lop Buri", "prov_code": "TH16", "amphoe_th": "เมืองลพบุรี", "amphoe_en": "Mueang Lop Buri", "amphoe_code": "TH1601", "tambon_th": "งิ้วราย", "tambon_en": "Ngio Rai", "tambon_code": "TH160110"}}, {"type": "Feature", "geometry": {"type": "Polygon", "coordinates": [[[101.20483536700004, 15.318605633000061], [101.13687512300004, 15.279006717000073], [101.08630036300008, 15.275647955000068], [101.10552324600008, 15.223178461000032], [101.14094658600004, 15.22181487000006], [101.16087718200004, 15.236571766000054], [101.19246913400008, 15.263823989000059], [101.20483536700004, 15.318605633000061]]]}, "properties": {"prov_th": "ลพบุรี", "prov_en": "Lop Buri", "prov_code": "TH16", "amphoe_th": "ชัยบาดาล", "amphoe_en": "Chai Badan", "amphoe_code": "TH1604", "tambon_th": "นิคมลำนารายณ์", "tambon_en": "Nikhom Lam Narai", "tambon_code": "TH160417"}}, {"type": "Feature", "geometry": {"type": "Polygon", "coordinates": [[[100.76665615400003, 14.796589375000053], [100.77896790700004, 14.848869901000057], [100.74134828200005, 14.897668828000064], [100.68302906400004, 14.85606886100004], [100.70208229600007, 14.811217421000038], [100.68915345100004, 14.780009453000048], [100.71219121200005, 14.761875834000023], [100.72453262900007, 14.760059856000055], [100.76665615400003, 14.796589375000053]]]}, "properties": {"prov_th": "ลพบุรี", "prov_en": "Lop Buri", "prov_code": "TH16", "amphoe_th": "เมืองลพบุรี", "amphoe_en": "Mueang Lop Buri", "amphoe_code": "TH1601", "tambon_th": "นิคมสร้างตนเอง", "tambon_en": "Nikhom Sang Ton-Eng", "tambon_code": "TH160116"}}, {"type": "Feature", "geometry": {"type": "Polygon", "coordinates": [[[100.95344478200008, 15.290952171000072], [100.93172878700005, 15.293443824000065], [100.89391231400003, 15.259161988000074], [100.93174601300007, 15.230522808000046], [100.87350066400006, 15.197251529000027], [100.82684058100006, 15.197767873000032], [100.82674789500004, 15.153314798000054], [100.89844174300003, 15.148404226000025], [100.93475040200008, 15.166011316000038], [100.97730986100004, 15.20613687100007], [100.98321150300006, 15.247262831000057], [100.95344478200008, 15.290952171000072]]]}, "properties": {"prov_th": "ลพบุรี", "prov_en": "Lop Buri", "prov_code": "TH16", "amphoe_th": "สระโบสถ์", "amphoe_en": "Sa Bot", "amphoe_code": "TH1608", "tambon_th": "นิยมชัย", "tambon_en": "Niyom Chai", "tambon_code": "TH160805"}}, {"type": "Feature", "geometry": {"type": "Polygon", "coordinates": [[[101.08485507900008, 14.890718330000027], [101.05365101100006, 14.921733423000035], [101.01750081800009, 14.876498376000029], [101.01922575300006, 14.817952797000032], [101.02388084700004, 14.809935740000071], [101.06098292100006, 14.759725925000055], [101.07269499400007, 14.791189473000031], [101.09316950700008, 14.849549942000067], [101.08485507900008, 14.890718330000027]]]}, "properties": {"prov_th": "ลพบุรี", "prov_en": "Lop Buri", "prov_code": "TH16", "amphoe_th": "พัฒนานิคม", "amphoe_en": "Phatthana Nikhom", "amphoe_code": "TH1602", "tambon_th": "หนองบัว", "tambon_en": "Nong Bua", "tambon_code": "TH160207"}}, {"type": "Feature", "geometry": {"type": "Polygon", "coordinates": [[[100.71242360000008, 15.178831123000066], [100.63639866100004, 15.141052882000054], [100.64035445900004, 15.132507989000032], [100.64339686300008, 15.129926263000073], [100.68281029400003, 15.130360194000048], [100.70505522400003, 15.098831442000062], [100.71298667100007, 15.103508352000063], [100.73149059400004, 15.124354046000064], [100.71242360000008, 15.178831123000066]]]}, "properties": {"prov_th": "ลพบุรี", "prov_en": "Lop Buri", "prov_code": "TH16", "amphoe_th": "โคกสำโรง", "amphoe_en": "Khok Samrong", "amphoe_code": "TH1603", "tambon_th": "หนองแขม", "tambon_en": "Nong Khaem", "tambon_code": "TH160322"}}, {"type": "Feature", "geometry": {"type": "Polygon", "coordinates": [[[100.56707283000009, 15.19037835100005], [100.55229409000003, 15.191947666000033], [100.51447682200006, 15.145104735000075], [100.49347060300005, 15.121199926000031], [100.53759109100008, 15.108967430000064], [100.56707283000009, 15.19037835100005]]]}, "properties": {"prov_th": "ลพบุรี", "prov_en": "Lop Buri", "prov_code": "TH16", "amphoe_th": "บ้านหมี่", "amphoe_en": "Ban Mi", "amphoe_code": "TH1606", "tambon_th": "หนองกระเบียน", "tambon_en": "Nong Krabian", "tambon_code": "TH160616"}}, {"type": "Feature", "geometry": {"type": "Polygon", "coordinates": [[[100.92869897300005, 15.487688026000058], [100.83096617000007, 15.56263414800003], [100.74598784700004, 15.513287969000032], [100.76831628200006, 15.462582311000062], [100.78078756700006, 15.46522698800004], [100.80476180800008, 15.490474575000064], [100.90207575200009, 15.425905898000053], [100.93169243500006, 15.414653034000025], [100.93157161100004, 15.467821234000041], [100.92869897300005, 15.487688026000058]]]}, "properties": {"prov_th": "ลพบุรี", "prov_en": "Lop Buri", "prov_code": "TH16", "amphoe_th": "โคกเจริญ", "amphoe_en": "Khok Charoen", "amphoe_code": "TH1609", "tambon_th": "หนองมะค่า", "tambon_en": "Nong Makha", "tambon_code": "TH160903"}}, {"type": "Feature", "geometry": {"type": "Polygon", "coordinates": [[[100.72252111500006, 15.305897024000046], [100.62022061000005, 15.242709923000064], [100.64942586000006, 15.203878764000024], [100.68268094000007, 15.202924456000062], [100.67991043000006, 15.251658915000064], [100.71305700700003, 15.288008044000037], [100.72252111500006, 15.305897024000046]]]}, "properties": {"prov_th": "ลพบุรี", "prov_en": "Lop Buri", "prov_code": "TH16", "amphoe_th": "หนองม่วง", "amphoe_en": "Nong Muang", "amphoe_code": "TH1611", "tambon_th": "หนองม่วง", "tambon_en": "Nong Muang", "tambon_code": "TH161101"}}, {"type": "Feature", "geometry": {"type": "Polygon", "coordinates": [[[100.58206391600004, 15.189064857000062], [100.56707283000009, 15.19037835100005], [100.53759109100008, 15.108967430000064], [100.53724690900003, 15.074394533000032], [100.55108904100007, 15.070342530000062], [100.55728136400006, 15.070124376000024], [100.56909261500005, 15.079973952000046], [100.58035744900008, 15.085534714000062], [100.60543364000006, 15.102093474000071], [100.58206391600004, 15.189064857000062]]]}, "properties": {"prov_th": "ลพบุรี", "prov_en": "Lop Buri", "prov_code": "TH16", "amphoe_th": "บ้านหมี่", "amphoe_en": "Ban Mi", "amphoe_code": "TH1606", "tambon_th": "หนองเมือง", "tambon_en": "Nong Mueang", "tambon_code": "TH160621"}}, {"type": "Feature", "geometry": {"type": "Polygon", "coordinates": [[[101.21833301400005, 15.16406250600005], [101.16371081700004, 15.164565796000034], [101.16263728300004, 15.118755660000033], [101.21391437200003, 15.075189023000064], [101.22981787400005, 15.074748145000058], [101.26882534400005, 15.09187382500005], [101.21833301400005, 15.16406250600005]]]}, "properties": {"prov_th": "ลพบุรี", "prov_en": "Lop Buri", "prov_code": "TH16", "amphoe_th": "ท่าหลวง", "amphoe_en": "Tha Luang", "amphoe_code": "TH1607", "tambon_th": "หนองผักแว่น", "tambon_en": "Nong Phak Waen", "tambon_code": "TH160704"}}, {"type": "Feature", "geometry": {"type": "Polygon", "coordinates": [[[101.38202449100004, 15.33140254600005], [101.38574495200004, 15.346047781000038], [101.35316368300005, 15.321498792000057], [101.30356881900008, 15.344568794000054], [101.29270356000006, 15.32899750000007], [101.29810731600008, 15.287170223000032], [101.31961879200009, 15.226458797000078], [101.34310721800006, 15.259990167000069], [101.38919747300008, 15.156891539000071], [101.40014445000008, 15.157556767000074], [101.38758359600007, 15.228467852000051], [101.38115872600008, 15.287089471000058], [101.38202449100004, 15.33140254600005]]]}, "properties": {"prov_th": "ลพบุรี", "prov_en": "Lop Buri", "prov_code": "TH16", "amphoe_th": "ลำสนธิ", "amphoe_en": "Lam Sonthi", "amphoe_code": "TH1610", "tambon_th": "หนองรี", "tambon_en": "Nong Ri", "tambon_code": "TH161003"}}, {"type": "Feature", "geometry": {"type": "Polygon", "coordinates": [[[100.62377040800004, 14.97504137900006], [100.61060767300006, 15.036928458000034], [100.59789215200004, 15.020289049000041], [100.58478393200005, 15.009260392000044], [100.57693673400007, 15.003103271000043], [100.57118145100009, 15.003027476000057], [100.56108587500006, 14.99413561700004], [100.57713392000005, 14.975322251000023], [100.62131517700004, 14.968449617000033], [100.62377040800004, 14.97504137900006]]]}, "properties": {"prov_th": "ลพบุรี", "prov_en": "Lop Buri", "prov_code": "TH16", "amphoe_th": "บ้านหมี่", "amphoe_en": "Ban Mi", "amphoe_code": "TH1606", "tambon_th": "หนองทรายขาว", "tambon_en": "Nong Sai Khao", "tambon_code": "TH160609"}}, {"type": "Feature", "geometry": {"type": "Polygon", "coordinates": [[[100.57713392000005, 14.975322251000023], [100.56108587500006, 14.99413561700004], [100.53142499700004, 14.975840126000037], [100.51969836600006, 14.927803328000039], [100.56312252500004, 14.942043639000076], [100.58788382900008, 14.925716049000073], [100.57713392000005, 14.975322251000023]]]}, "properties": {"prov_th": "ลพบุรี", "prov_en": "Lop Buri", "prov_code": "TH16", "amphoe_th": "บ้านหมี่", "amphoe_en": "Ban Mi", "amphoe_code": "TH1606", "tambon_th": "หนองเต่า", "tambon_en": "Nong Tao", "tambon_code": "TH160611"}}, {"type": "Feature", "geometry": {"type": "Polygon", "coordinates": [[[101.29270356000006, 15.32899750000007], [101.23422988000004, 15.256280397000069], [101.22448747500005, 15.226741649000076], [101.28327410700007, 15.184623675000068], [101.30354744700008, 15.20604318900007], [101.26286445900007, 15.244323673000054], [101.29810731600008, 15.287170223000032], [101.29270356000006, 15.32899750000007]]]}, "properties": {"prov_th": "ลพบุรี", "prov_en": "Lop Buri", "prov_code": "TH16", "amphoe_th": "ชัยบาดาล", "amphoe_en": "Chai Badan", "amphoe_code": "TH1604", "tambon_th": "หนองยายโต๊ะ", "tambon_en": "Nong Yai To", "tambon_code": "TH160411"}}, {"type": "Feature", "geometry": {"type": "Polygon", "coordinates": [[[100.66191246100004, 14.78960879400006], [100.65837005100008, 14.799468913000055], [100.61599831400008, 14.796079623000026], [100.61618865300005, 14.79508670000007], [100.63021905200009, 14.773823246000063], [100.66444203000003, 14.741226134000044], [100.66191246100004, 14.78960879400006]]]}, "properties": {"prov_th": "ลพบุรี", "prov_en": "Lop Buri", "prov_code": "TH16", "amphoe_th": "เมืองลพบุรี", "amphoe_en": "Mueang Lop Buri", "amphoe_code": "TH1601", "tambon_th": "ป่าตาล", "tambon_en": "Pa Tan", "tambon_code": "TH160120"}}, {"type": "Feature", "geometry": {"type": "Polygon", "coordinates": [[[100.47496705400005, 15.10675714000007], [100.43215988800006, 15.071491958000024], [100.42748741400004, 15.061086905000025], [100.44671152400008, 15.055237117000047], [100.49711050300004, 15.075241733000041], [100.50527164300007, 15.075743001000035], [100.47496705400005, 15.10675714000007]]]}, "properties": {"prov_th": "ลพบุรี", "prov_en": "Lop Buri", "prov_code": "TH16", "amphoe_th": "บ้านหมี่", "amphoe_en": "Ban Mi", "amphoe_code": "TH1606", "tambon_th": "ไผ่ใหญ่", "tambon_en": "Phai Yai", "tambon_code": "TH160601"}}, {"type": "Feature", "geometry": {"type": "Polygon", "coordinates": [[[100.86557683400008, 14.972999639000022], [100.86170798200004, 15.008077212000046], [100.81034780400006, 15.096868511000025], [100.75818169700005, 15.09617264600007], [100.75928608800007, 15.084407597000052], [100.76720299300007, 15.07167118500007], [100.78339578300006, 15.018187424000075], [100.82393708200004, 14.976643263000028], [100.86557683400008, 14.972999639000022]]]}, "properties": {"prov_th": "ลพบุรี", "prov_en": "Lop Buri", "prov_code": "TH16", "amphoe_th": "โคกสำโรง", "amphoe_en": "Khok Samrong", "amphoe_code": "TH1603", "tambon_th": "เพนียด", "tambon_en": "Phaniat", "tambon_code": "TH160308"}}, {"type": "Feature", "geometry": {"type": "Polygon", "coordinates": [[[101.01169457900005, 14.925076448000027], [100.96858871300009, 14.962811914000042], [100.90998290100003, 14.960411427000054], [100.92901827100007, 14.834726408000051], [100.95702091300006, 14.834595900000068], [101.01922575300006, 14.817952797000032], [101.01750081800009, 14.876498376000029], [101.01169457900005, 14.925076448000027]]]}, "properties": {"prov_th": "ลพบุรี", "prov_en": "Lop Buri", "prov_code": "TH16", "amphoe_th": "พัฒนานิคม", "amphoe_en": "Phatthana Nikhom", "amphoe_code": "TH1602", "tambon_th": "พัฒนานิคม", "tambon_en": "Phatthana Nikhom", "tambon_code": "TH160201"}}, {"type": "Feature", "geometry": {"type": "Polygon", "coordinates": [[[100.60688298400004, 14.796632373000023], [100.59417216800006, 14.798111924000068], [100.57904640700008, 14.785903675000043], [100.56598913500005, 14.771591579000074], [100.57812868900004, 14.751597193000066], [100.62464781400007, 14.746724620000066], [100.63021905200009, 14.773823246000063], [100.61618865300005, 14.79508670000007], [100.60688298400004, 14.796632373000023]]]}, "properties": {"prov_th": "ลพบุรี", "prov_en": "Lop Buri", "prov_code": "TH16", "amphoe_th": "เมืองลพบุรี", "amphoe_en": "Mueang Lop Buri", "amphoe_code": "TH1601", "tambon_th": "โพธิ์เก้าต้น", "tambon_en": "Pho Kao Ton", "tambon_code": "TH160122"}}, {"type": "Feature", "geometry": {"type": "Polygon", "coordinates": [[[100.57904640700008, 14.785903675000043], [100.54436451900006, 14.84296555800006], [100.53529925300006, 14.826958152000032], [100.54387681500003, 14.776958308000076], [100.56278456200005, 14.766118122000023], [100.56598913500005, 14.771591579000074], [100.57904640700008, 14.785903675000043]]]}, "properties": {"prov_th": "ลพบุรี", "prov_en": "Lop Buri", "prov_code": "TH16", "amphoe_th": "ท่าวุ้ง", "amphoe_en": "Tha Wung", "amphoe_code": "TH1605", "tambon_th": "โพตลาดแก้ว", "tambon_en": "Pho Talat Kaeo", "tambon_code": "TH160503"}}, {"type": "Feature", "geometry": {"type": "Polygon", "coordinates": [[[100.57812868900004, 14.751597193000066], [100.56598913500005, 14.771591579000074], [100.56278456200005, 14.766118122000023], [100.51645082600004, 14.737134278000042], [100.52440905300006, 14.704493592000063], [100.54637981800005, 14.698776698000074], [100.57211717400008, 14.74854840300003], [100.57812868900004, 14.751597193000066]]]}, "properties": {"prov_th": "ลพบุรี", "prov_en": "Lop Buri", "prov_code": "TH16", "amphoe_th": "เมืองลพบุรี", "amphoe_en": "Mueang Lop Buri", "amphoe_code": "TH1601", "tambon_th": "โพธิ์ตรุ", "tambon_en": "Pho Tru", "tambon_code": "TH160123"}}, {"type": "Feature", "geometry": {"type": "Polygon", "coordinates": [[[100.55728136400006, 15.070124376000024], [100.55108904100007, 15.070342530000062], [100.54474560700004, 15.043309056000055], [100.54353468400006, 15.036533539000061], [100.57118145100009, 15.003027476000057], [100.57693673400007, 15.003103271000043], [100.55728136400006, 15.070124376000024]]]}, "properties": {"prov_th": "ลพบุรี", "prov_en": "Lop Buri", "prov_code": "TH16", "amphoe_th": "บ้านหมี่", "amphoe_en": "Ban Mi", "amphoe_code": "TH1606", "tambon_th": "โพนทอง", "tambon_en": "Phon Thong", "tambon_code": "TH160612"}}, {"type": "Feature", "geometry": {"type": "Polygon", "coordinates": [[[100.60633956000004, 14.840449069000044], [100.59569910800008, 14.843708173000039], [100.59417216800006, 14.798111924000068], [100.60688298400004, 14.796632373000023], [100.61322516200005, 14.808807775000048], [100.61001574100004, 14.823570417000042], [100.60633956000004, 14.840449069000044]]]}, "properties": {"prov_th": "ลพบุรี", "prov_en": "Lop Buri", "prov_code": "TH16", "amphoe_th": "เมืองลพบุรี", "amphoe_en": "Mueang Lop Buri", "amphoe_code": "TH1601", "tambon_th": "พรหมมาสตร์", "tambon_en": "Phrommat", "tambon_code": "TH160121"}}, {"type": "Feature", "geometry": {"type": "Polygon", "coordinates": [[[100.62131517700004, 14.968449617000033], [100.57713392000005, 14.975322251000023], [100.58788382900008, 14.925716049000073], [100.61138914500003, 14.936158964000072], [100.62131517700004, 14.968449617000033]]]}, "properties": {"prov_th": "ลพบุรี", "prov_en": "Lop Buri", "prov_code": "TH16", "amphoe_th": "บ้านหมี่", "amphoe_en": "Ban Mi", "amphoe_code": "TH1606", "tambon_th": "พุคา", "tambon_en": "Phu Kha", "tambon_code": "TH160606"}}, {"type": "Feature", "geometry": {"type": "Polygon", "coordinates": [[[100.82684058100006, 15.197767873000032], [100.87350066400006, 15.197251529000027], [100.93174601300007, 15.230522808000046], [100.89391231400003, 15.259161988000074], [100.81364405600004, 15.228103267000051], [100.78498117900006, 15.234230375000038], [100.76171735300005, 15.231592415000023], [100.76608036400006, 15.216764736000073], [100.80943000000008, 15.187827136000067], [100.82684058100006, 15.197767873000032]]]}, "properties": {"prov_th": "ลพบุรี", "prov_en": "Lop Buri", "prov_code": "TH16", "amphoe_th": "สระโบสถ์", "amphoe_en": "Sa Bot", "amphoe_code": "TH1608", "tambon_th": "สระโบสถ์", "tambon_en": "Sa Bot", "tambon_code": "TH160801"}}, {"type": "Feature", "geometry": {"type": "Polygon", "coordinates": [[[100.53759109100008, 15.108967430000064], [100.49347060300005, 15.121199926000031], [100.47496705400005, 15.10675714000007], [100.50527164300007, 15.075743001000035], [100.53724690900003, 15.074394533000032], [100.53759109100008, 15.108967430000064]]]}, "properties": {"prov_th": "ลพบุรี", "prov_en": "Lop Buri", "prov_code": "TH16", "amphoe_th": "บ้านหมี่", "amphoe_en": "Ban Mi", "amphoe_code": "TH1606", "tambon_th": "สายห้วยแก้ว", "tambon_en": "Sai Huai Kaeo", "tambon_code": "TH160617"}}, {"type": "Feature", "geometry": {"type": "Polygon", "coordinates": [[[100.77543058400005, 15.157106400000032], [100.76660977800003, 15.167610915000068], [100.75818169700005, 15.09617264600007], [100.81034780400006, 15.096868511000025], [100.84050651600006, 15.084892719000038], [100.82482479800007, 15.150967602000037], [100.78510174100006, 15.14125725200006], [100.77543058400005, 15.157106400000032]]]}, "properties": {"prov_th": "ลพบุรี", "prov_en": "Lop Buri", "prov_code": "TH16", "amphoe_th": "โคกสำโรง", "amphoe_en": "Khok Samrong", "amphoe_code": "TH1603", "tambon_th": "สะแกราบ", "tambon_en": "Sakae Rap", "tambon_code": "TH160307"}}, {"type": "Feature", "geometry": {"type": "Polygon", "coordinates": [[[100.53391694700008, 15.045958823000035], [100.50508575300006, 15.03762697600007], [100.51534170100007, 14.97706342500004], [100.53142499700004, 14.975840126000037], [100.56108587500006, 14.99413561700004], [100.57118145100009, 15.003027476000057], [100.54353468400006, 15.036533539000061], [100.53391694700008, 15.045958823000035]]]}, "properties": {"prov_th": "ลพบุรี", "prov_en": "Lop Buri", "prov_code": "TH16", "amphoe_th": "บ้านหมี่", "amphoe_en": "Ban Mi", "amphoe_code": "TH1606", "tambon_th": "สนามแจง", "tambon_en": "Sanam Chaeng", "tambon_code": "TH160622"}}, {"type": "Feature", "geometry": {"type": "Polygon", "coordinates": [[[101.22981787400005, 15.074748145000058], [101.21391437200003, 15.075189023000064], [101.18454380000009, 15.050009255000077], [101.20186377700009, 14.996214302000055], [101.20622347400007, 14.983806103000063], [101.27267310400003, 14.993820526000036], [101.26133236900006, 15.056057180000039], [101.22981787400005, 15.074748145000058]]]}, "properties": {"prov_th": "ลพบุรี", "prov_en": "Lop Buri", "prov_code": "TH16", "amphoe_th": "ท่าหลวง", "amphoe_en": "Tha Luang", "amphoe_code": "TH1607", "tambon_th": "ซับจำปา", "tambon_en": "Sap Champa", "tambon_code": "TH160703"}}, {"type": "Feature", "geometry": {"type": "Polygon", "coordinates": [[[101.38919747300008, 15.156891539000071], [101.34310721800006, 15.259990167000069], [101.31961879200009, 15.226458797000078], [101.33698836700006, 15.176859540000066], [101.35265947800008, 15.13475724400007], [101.38919747300008, 15.156891539000071]]]}, "properties": {"prov_th": "ลพบุรี", "prov_en": "Lop Buri", "prov_code": "TH16", "amphoe_th": "ลำสนธิ", "amphoe_en": "Lam Sonthi", "amphoe_code": "TH1610", "tambon_th": "ซับสมบูรณ์", "tambon_en": "Sap Sombun", "tambon_code": "TH161002"}}, {"type": "Feature", "geometry": {"type": "Polygon", "coordinates": [[[101.33698836700006, 15.176859540000066], [101.28664194900006, 15.159828718000028], [101.32350686800004, 15.067719465000039], [101.36307893800006, 15.046971339000038], [101.35265947800008, 15.13475724400007], [101.33698836700006, 15.176859540000066]]]}, "properties": {"prov_th": "ลพบุรี", "prov_en": "Lop Buri", "prov_code": "TH16", "amphoe_th": "ชัยบาดาล", "amphoe_en": "Chai Badan", "amphoe_code": "TH1604", "tambon_th": "ซับตะเคียน", "tambon_en": "Sap Takhian", "tambon_code": "TH160409"}}, {"type": "Feature", "geometry": {"type": "Polygon", "coordinates": [[[100.58186153900004, 14.68435317500007], [100.56960996500004, 14.710242191000077], [100.54637981800005, 14.698776698000074], [100.54128975700007, 14.669642982000028], [100.56621750200009, 14.662725778000038], [100.56842093700004, 14.662296393000076], [100.58072299000008, 14.664360891000058], [100.58186153900004, 14.68435317500007]]]}, "properties": {"prov_th": "ลพบุรี", "prov_en": "Lop Buri", "prov_code": "TH16", "amphoe_th": "เมืองลพบุรี", "amphoe_en": "Mueang Lop Buri", "amphoe_code": "TH1601", "tambon_th": "สี่คลอง", "tambon_en": "Si Khlong", "tambon_code": "TH160124"}}, {"type": "Feature", "geometry": {"type": "Polygon", "coordinates": [[[101.20543512900008, 15.319421657000078], [101.08227669600006, 15.356381916000032], [101.05094424200007, 15.32094475100007], [100.97705417100008, 15.336465455000052], [100.96407181500007, 15.321373039000036], [101.08630036300008, 15.275647955000068], [101.13687512300004, 15.279006717000073], [101.20483536700004, 15.318605633000061], [101.20543512900008, 15.319421657000078]]]}, "properties": {"prov_th": "ลพบุรี", "prov_en": "Lop Buri", "prov_code": "TH16", "amphoe_th": "ชัยบาดาล", "amphoe_en": "Chai Badan", "amphoe_code": "TH1604", "tambon_th": "ศิลาทิพย์", "tambon_en": "Sila Thip", "tambon_code": "TH160403"}}, {"type": "Feature", "geometry": {"type": "Polygon", "coordinates": [[[100.62464781400007, 14.746724620000066], [100.57812868900004, 14.751597193000066], [100.57211717400008, 14.74854840300003], [100.58050849400007, 14.72339213500004], [100.61308750300009, 14.722388142000057], [100.62899944200007, 14.720576398000048], [100.62464781400007, 14.746724620000066]]]}, "properties": {"prov_th": "ลพบุรี", "prov_en": "Lop Buri", "prov_code": "TH16", "amphoe_th": "เมืองลพบุรี", "amphoe_en": "Mueang Lop Buri", "amphoe_code": "TH1601", "tambon_th": "ตะลุง", "tambon_en": "Talung", "tambon_code": "TH160112"}}, {"type": "Feature", "geometry": {"type": "Polygon", "coordinates": [[[101.14467990400004, 15.178443468000069], [101.10194822500006, 15.163708257000053], [101.09942806900006, 15.123552760000052], [101.16263728300004, 15.118755660000033], [101.16371081700004, 15.164565796000034], [101.14467990400004, 15.178443468000069]]]}, "properties": {"prov_th": "ลพบุรี", "prov_en": "Lop Buri", "prov_code": "TH16", "amphoe_th": "ชัยบาดาล", "amphoe_en": "Chai Badan", "amphoe_code": "TH1604", "tambon_th": "ท่าดินดำ", "tambon_en": "Tha Din Dam", "tambon_code": "TH160407"}}, {"type": "Feature", "geometry": {"type": "Polygon", "coordinates": [[[100.61599831400008, 14.796079623000026], [100.61322516200005, 14.808807775000048], [100.60688298400004, 14.796632373000023], [100.61618865300005, 14.79508670000007], [100.61599831400008, 14.796079623000026]]]}, "properties": {"prov_th": "ลพบุรี", "prov_en": "Lop Buri", "prov_code": "TH16", "amphoe_th": "เมืองลพบุรี", "amphoe_en": "Mueang Lop Buri", "amphoe_code": "TH1601", "tambon_th": "ท่าหิน", "tambon_en": "Tha Hin", "tambon_code": "TH160102"}}, {"type": "Feature", "geometry": {"type": "Polygon", "coordinates": [[[100.64046564300008, 14.85715409200003], [100.59765562900009, 14.886608525000042], [100.59569910800008, 14.843708173000039], [100.60633956000004, 14.840449069000044], [100.64294807700009, 14.845786908000036], [100.64046564300008, 14.85715409200003]]]}, "properties": {"prov_th": "ลพบุรี", "prov_en": "Lop Buri", "prov_code": "TH16", "amphoe_th": "เมืองลพบุรี", "amphoe_en": "Mueang Lop Buri", "amphoe_code": "TH1601", "tambon_th": "ท่าแค", "tambon_en": "Tha Khae", "tambon_code": "TH160114"}}, {"type": "Feature", "geometry": {"type": "Polygon", "coordinates": [[[101.16263728300004, 15.118755660000033], [101.09942806900006, 15.123552760000052], [101.08970231500007, 15.066231495000068], [101.08803702900008, 15.056335706000027], [101.13756324400003, 15.025091882000027], [101.14102212800003, 15.053781447000063], [101.18454380000009, 15.050009255000077], [101.21391437200003, 15.075189023000064], [101.16263728300004, 15.118755660000033]]]}, "properties": {"prov_th": "ลพบุรี", "prov_en": "Lop Buri", "prov_code": "TH16", "amphoe_th": "ท่าหลวง", "amphoe_en": "Tha Luang", "amphoe_code": "TH1607", "tambon_th": "ท่าหลวง", "tambon_en": "Tha Luang", "tambon_code": "TH160701"}}, {"type": "Feature", "geometry": {"type": "Polygon", "coordinates": [[[101.21833301400005, 15.16406250600005], [101.16981775300007, 15.228408858000023], [101.14467990400004, 15.178443468000069], [101.16371081700004, 15.164565796000034], [101.21833301400005, 15.16406250600005]]]}, "properties": {"prov_th": "ลพบุรี", "prov_en": "Lop Buri", "prov_code": "TH16", "amphoe_th": "ชัยบาดาล", "amphoe_en": "Chai Badan", "amphoe_code": "TH1604", "tambon_th": "ท่ามะนาว", "tambon_en": "Tha Manao", "tambon_code": "TH160414"}}, {"type": "Feature", "geometry": {"type": "Polygon", "coordinates": [[[100.68915345100004, 14.780009453000048], [100.70208229600007, 14.811217421000038], [100.65837005100008, 14.799468913000055], [100.66191246100004, 14.78960879400006], [100.68915345100004, 14.780009453000048]]]}, "properties": {"prov_th": "ลพบุรี", "prov_en": "Lop Buri", "prov_code": "TH16", "amphoe_th": "เมืองลพบุรี", "amphoe_en": "Mueang Lop Buri", "amphoe_code": "TH1601", "tambon_th": "ท่าศาลา", "tambon_en": "Tha Sala", "tambon_code": "TH160115"}}, {"type": "Feature", "geometry": {"type": "Polygon", "coordinates": [[[100.51300698300008, 14.833484611000074], [100.46483601500006, 14.82168917000007], [100.46421327800005, 14.820561605000023], [100.48262596100005, 14.81130984400005], [100.50518267100006, 14.793522838000058], [100.51300698300008, 14.833484611000074]]]}, "properties": {"prov_th": "ลพบุรี", "prov_en": "Lop Buri", "prov_code": "TH16", "amphoe_th": "ท่าวุ้ง", "amphoe_en": "Tha Wung", "amphoe_code": "TH1605", "tambon_th": "ท่าวุ้ง", "tambon_en": "Tha Wung", "tambon_code": "TH160501"}}, {"type": "Feature", "geometry": {"type": "Polygon", "coordinates": [[[100.58050849400007, 14.72339213500004], [100.57211717400008, 14.74854840300003], [100.54637981800005, 14.698776698000074], [100.56960996500004, 14.710242191000077], [100.58050849400007, 14.72339213500004]]]}, "properties": {"prov_th": "ลพบุรี", "prov_en": "Lop Buri", "prov_code": "TH16", "amphoe_th": "เมืองลพบุรี", "amphoe_en": "Mueang Lop Buri", "amphoe_code": "TH1601", "tambon_th": "ท้ายตลาด", "tambon_en": "Thai Talat", "tambon_code": "TH160119"}}, {"type": "Feature", "geometry": {"type": "Polygon", "coordinates": [[[100.65837005100008, 14.799468913000055], [100.64769507100004, 14.823906969000063], [100.61001574100004, 14.823570417000042], [100.61322516200005, 14.808807775000048], [100.61599831400008, 14.796079623000026], [100.65837005100008, 14.799468913000055]]]}, "properties": {"prov_th": "ลพบุรี", "prov_en": "Lop Buri", "prov_code": "TH16", "amphoe_th": "เมืองลพบุรี", "amphoe_en": "Mueang Lop Buri", "amphoe_code": "TH1601", "tambon_th": "ทะเลชุบศร", "tambon_en": "Thale Chup Son", "tambon_code": "TH160101"}}, {"type": "Feature", "geometry": {"type": "Polygon", "coordinates": [[[101.18454380000009, 15.050009255000077], [101.14102212800003, 15.053781447000063], [101.13756324400003, 15.025091882000027], [101.12983855000004, 14.998090010000055], [101.20186377700009, 14.996214302000055], [101.18454380000009, 15.050009255000077]]]}, "properties": {"prov_th": "ลพบุรี", "prov_en": "Lop Buri", "prov_code": "TH16", "amphoe_th": "ท่าหลวง", "amphoe_en": "Tha Luang", "amphoe_code": "TH1607", "tambon_th": "ทะเลวังวัด", "tambon_en": "Thale Wang Wat", "tambon_code": "TH160705"}}, {"type": "Feature", "geometry": {"type": "Polygon", "coordinates": [[[100.69729399000005, 15.087297939000052], [100.65786228900004, 15.066014513000027], [100.65622265800005, 15.063387950000049], [100.68555328400004, 15.045350405000022], [100.70332881700006, 15.055308381000032], [100.69729399000005, 15.087297939000052]]]}, "properties": {"prov_th": "ลพบุรี", "prov_en": "Lop Buri", "prov_code": "TH16", "amphoe_th": "โคกสำโรง", "amphoe_en": "Khok Samrong", "amphoe_code": "TH1603", "tambon_th": "ถลุงเหล็ก", "tambon_en": "Thalung Lek", "tambon_code": "TH160303"}}, {"type": "Feature", "geometry": {"type": "Polygon", "coordinates": [[[100.64294807700009, 14.845786908000036], [100.60633956000004, 14.840449069000044], [100.61001574100004, 14.823570417000042], [100.64769507100004, 14.823906969000063], [100.64294807700009, 14.845786908000036]]]}, "properties": {"prov_th": "ลพบุรี", "prov_en": "Lop Buri", "prov_code": "TH16", "amphoe_th": "เมืองลพบุรี", "amphoe_en": "Mueang Lop Buri", "amphoe_code": "TH1601", "tambon_th": "ถนนใหญ่", "tambon_en": "Thanon Yai", "tambon_code": "TH160125"}}, {"type": "Feature", "geometry": {"type": "Polygon", "coordinates": [[[100.82684058100006, 15.197767873000032], [100.80943000000008, 15.187827136000067], [100.78510174100006, 15.14125725200006], [100.82482479800007, 15.150967602000037], [100.82674789500004, 15.153314798000054], [100.82684058100006, 15.197767873000032]]]}, "properties": {"prov_th": "ลพบุรี", "prov_en": "Lop Buri", "prov_code": "TH16", "amphoe_th": "สระโบสถ์", "amphoe_en": "Sa Bot", "amphoe_code": "TH1608", "tambon_th": "ทุ่งท่าช้าง", "tambon_en": "Thung Tha Chang", "tambon_code": "TH160803"}}, {"type": "Feature", "geometry": {"type": "Polygon", "coordinates": [[[100.70505522400003, 15.098831442000062], [100.68281029400003, 15.130360194000048], [100.64339686300008, 15.129926263000073], [100.65786228900004, 15.066014513000027], [100.69729399000005, 15.087297939000052], [100.70505522400003, 15.098831442000062]]]}, "properties": {"prov_th": "ลพบุรี", "prov_en": "Lop Buri", "prov_code": "TH16", "amphoe_th": "โคกสำโรง", "amphoe_en": "Khok Samrong", "amphoe_code": "TH1603", "tambon_th": "วังจั่น", "tambon_en": "Wang Chan", "tambon_code": "TH160320"}}, {"type": "Feature", "geometry": {"type": "Polygon", "coordinates": [[[100.70332881700006, 15.055308381000032], [100.68555328400004, 15.045350405000022], [100.66934408500003, 15.022507032000021], [100.72649904800005, 14.986394508000046], [100.71732968200007, 15.039630048000049], [100.70332881700006, 15.055308381000032]]]}, "properties": {"prov_th": "ลพบุรี", "prov_en": "Lop Buri", "prov_code": "TH16", "amphoe_th": "โคกสำโรง", "amphoe_en": "Khok Samrong", "amphoe_code": "TH1603", "tambon_th": "วังขอนขว้าง", "tambon_en": "Wang Khon Khwang", "tambon_code": "TH160318"}}, {"type": "Feature", "geometry": {"type": "Polygon", "coordinates": [[[100.93150047800003, 15.14587055000004], [100.88757330500005, 15.091474133000077], [100.84050651600006, 15.084892719000038], [100.81034780400006, 15.096868511000025], [100.86170798200004, 15.008077212000046], [100.86557683400008, 14.972999639000022], [100.87403098600004, 14.971638503000065], [100.90339445500007, 15.039148216000058], [100.93276761600004, 15.102403486000071], [100.93150047800003, 15.14587055000004]]]}, "properties": {"prov_th": "ลพบุรี", "prov_en": "Lop Buri", "prov_code": "TH16", "amphoe_th": "โคกสำโรง", "amphoe_en": "Khok Samrong", "amphoe_code": "TH1603", "tambon_th": "วังเพลิง", "tambon_en": "Wang Phloeng", "tambon_code": "TH160309"}}, {"type": "Feature", "geometry": {"type": "Polygon", "coordinates": [[[100.90207575200009, 15.425905898000053], [100.80476180800008, 15.490474575000064], [100.78078756700006, 15.46522698800004], [100.83237390300008, 15.452689307000071], [100.83588083600006, 15.389943310000035], [100.88927925200005, 15.363830688000064], [100.90207575200009, 15.425905898000053]]]}, "properties": {"prov_th": "ลพบุรี", "prov_en": "Lop Buri", "prov_code": "TH16", "amphoe_th": "โคกเจริญ", "amphoe_en": "Khok Charoen", "amphoe_code": "TH1609", "tambon_th": "วังทอง", "tambon_en": "Wang Thong", "tambon_code": "TH160904"}}, {"type": "Feature", "geometry": {"type": "Polygon", "coordinates": [[[100.90207575200009, 15.425905898000053], [100.88927925200005, 15.363830688000064], [100.92280120200007, 15.300960006000025], [100.93172878700005, 15.293443824000065], [100.95344478200008, 15.290952171000072], [100.96407181500007, 15.321373039000036], [100.97705417100008, 15.336465455000052], [100.97862445000004, 15.367443607000041], [100.97563370700004, 15.416021413000067], [100.93169243500006, 15.414653034000025], [100.90207575200009, 15.425905898000053]]]}, "properties": {"prov_th": "ลพบุรี", "prov_en": "Lop Buri", "prov_code": "TH16", "amphoe_th": "โคกเจริญ", "amphoe_en": "Khok Charoen", "amphoe_code": "TH1609", "tambon_th": "ยางราก", "tambon_en": "Yang Rak", "tambon_code": "TH160902"}}, {"type": "Feature", "geometry": {"type": "Polygon", "coordinates": [[[100.76171735300005, 15.231592415000023], [100.71305700700003, 15.288008044000037], [100.67991043000006, 15.251658915000064], [100.68268094000007, 15.202924456000062], [100.75167841600006, 15.208556050000027], [100.76608036400006, 15.216764736000073], [100.76171735300005, 15.231592415000023]]]}, "properties": {"prov_th": "ลพบุรี", "prov_en": "Lop Buri", "prov_code": "TH16", "amphoe_th": "หนองม่วง", "amphoe_en": "Nong Muang", "amphoe_code": "TH1611", "tambon_th": "ยางโทน", "tambon_en": "Yang Thon", "tambon_code": "TH161105"}}]}