{"type":"FeatureCollection","name":"lopburi_court_tambon","description":"ขอบเขตตำบลในเขตอำนาจศาลจังหวัดลพบุรี 85 ตำบล","source":"Thailand Subdistrict Boundaries (Globetech / MERKATOR) + DOPA village counts","amphoeCodes":["1601","1602","1603","1605","1606","1611"],"generatedFrom":"tools/build-court-data.mjs","features":[{"type":"Feature","id":"160101","properties":{"ADMIN_ID1":"16","ADMIN_ID2":"1601","ADMIN_ID3":"160101","NAME1":"ลพบุรี","NAME2":"เมืองลพบุรี","NAME3":"ทะเลชุบศร","NAME1_EN":"Lop Buri","NAME2_EN":"Mueang Lop Buri","NAME3_EN":"Thale Chup Son","POPULATION":null,"HOUSE":null,"VILLAGES":28},"geometry":{"type":"Polygon","coordinates":[[[100.65837,14.799469],[100.647695,14.823907],[100.610016,14.82357],[100.613225,14.808808],[100.615998,14.79608],[100.65837,14.799469]]]}},{"type":"Feature","id":"160102","properties":{"ADMIN_ID1":"16","ADMIN_ID2":"1601","ADMIN_ID3":"160102","NAME1":"ลพบุรี","NAME2":"เมืองลพบุรี","NAME3":"ท่าหิน","NAME1_EN":"Lop Buri","NAME2_EN":"Mueang Lop Buri","NAME3_EN":"Tha Hin","POPULATION":null,"HOUSE":null,"VILLAGES":7},"geometry":{"type":"Polygon","coordinates":[[[100.615998,14.79608],[100.613225,14.808808],[100.606883,14.796632],[100.616189,14.795087],[100.615998,14.79608]]]}},{"type":"Feature","id":"160103","properties":{"ADMIN_ID1":"16","ADMIN_ID2":"1601","ADMIN_ID3":"160103","NAME1":"ลพบุรี","NAME2":"เมืองลพบุรี","NAME3":"กกโก","NAME1_EN":"Lop Buri","NAME2_EN":"Mueang Lop Buri","NAME3_EN":"Kok Ko","POPULATION":null,"HOUSE":null,"VILLAGES":8},"geometry":{"type":"Polygon","coordinates":[[[100.689153,14.780009],[100.661912,14.789609],[100.664442,14.741226],[100.670254,14.739612],[100.712191,14.761876],[100.689153,14.780009]]]}},{"type":"Feature","id":"160104","properties":{"ADMIN_ID1":"16","ADMIN_ID2":"1601","ADMIN_ID3":"160104","NAME1":"ลพบุรี","NAME2":"เมืองลพบุรี","NAME3":"โก่งธนู","NAME1_EN":"Lop Buri","NAME2_EN":"Mueang Lop Buri","NAME3_EN":"Kong Thanu","POPULATION":null,"HOUSE":null,"VILLAGES":14},"geometry":{"type":"Polygon","coordinates":[[[100.611513,14.696858],[100.581862,14.684353],[100.580723,14.664361],[100.602285,14.655051],[100.614351,14.647072],[100.611513,14.696858]]]}},{"type":"Feature","id":"160105","properties":{"ADMIN_ID1":"16","ADMIN_ID2":"1601","ADMIN_ID3":"160105","NAME1":"ลพบุรี","NAME2":"เมืองลพบุรี","NAME3":"เขาพระงาม","NAME1_EN":"Lop Buri","NAME2_EN":"Mueang Lop Buri","NAME3_EN":"Khao Phra Ngam","POPULATION":null,"HOUSE":null,"VILLAGES":10},"geometry":{"type":"Polygon","coordinates":[[[100.72924,14.953152],[100.611389,14.936159],[100.587884,14.925716],[100.597656,14.886609],[100.640466,14.857154],[100.683029,14.856069],[100.741348,14.897669],[100.751225,14.932597],[100.72924,14.953152]]]}},{"type":"Feature","id":"160106","properties":{"ADMIN_ID1":"16","ADMIN_ID2":"1601","ADMIN_ID3":"160106","NAME1":"ลพบุรี","NAME2":"เมืองลพบุรี","NAME3":"เขาสามยอด","NAME1_EN":"Lop Buri","NAME2_EN":"Mueang Lop Buri","NAME3_EN":"Khao Sam Yot","POPULATION":null,"HOUSE":null,"VILLAGES":34},"geometry":{"type":"Polygon","coordinates":[[[100.683029,14.856069],[100.640466,14.857154],[100.642948,14.845787],[100.647695,14.823907],[100.65837,14.799469],[100.702082,14.811217],[100.683029,14.856069]]]}},{"type":"Feature","id":"160107","properties":{"ADMIN_ID1":"16","ADMIN_ID2":"1601","ADMIN_ID3":"160107","NAME1":"ลพบุรี","NAME2":"เมืองลพบุรี","NAME3":"โคกกะเทียม","NAME1_EN":"Lop Buri","NAME2_EN":"Mueang Lop Buri","NAME3_EN":"Khok Kathiam","POPULATION":null,"HOUSE":null,"VILLAGES":9},"geometry":{"type":"Polygon","coordinates":[[[100.587884,14.925716],[100.563123,14.942044],[100.558217,14.885633],[100.595699,14.843708],[100.597656,14.886609],[100.587884,14.925716]]]}},{"type":"Feature","id":"160108","properties":{"ADMIN_ID1":"16","ADMIN_ID2":"1601","ADMIN_ID3":"160108","NAME1":"ลพบุรี","NAME2":"เมืองลพบุรี","NAME3":"โคกลำพาน","NAME1_EN":"Lop Buri","NAME2_EN":"Mueang Lop Buri","NAME3_EN":"Khok Lamphan","POPULATION":null,"HOUSE":null,"VILLAGES":8},"geometry":{"type":"Polygon","coordinates":[[[100.664442,14.741226],[100.630219,14.773823],[100.624648,14.746725],[100.628999,14.720576],[100.651302,14.710298],[100.670254,14.739612],[100.664442,14.741226]]]}},{"type":"Feature","id":"160109","properties":{"ADMIN_ID1":"16","ADMIN_ID2":"1601","ADMIN_ID3":"160109","NAME1":"ลพบุรี","NAME2":"เมืองลพบุรี","NAME3":"โคกตูม","NAME1_EN":"Lop Buri","NAME2_EN":"Mueang Lop Buri","NAME3_EN":"Khok Tum","POPULATION":null,"HOUSE":null,"VILLAGES":16},"geometry":{"type":"Polygon","coordinates":[[[100.826495,14.936297],[100.751225,14.932597],[100.741348,14.897669],[100.778968,14.84887],[100.766656,14.796589],[100.793989,14.791431],[100.848128,14.797202],[100.862293,14.840567],[100.898141,14.844648],[100.879948,14.903567],[100.826495,14.936297]]]}},{"type":"Feature","id":"160110","properties":{"ADMIN_ID1":"16","ADMIN_ID2":"1601","ADMIN_ID3":"160110","NAME1":"ลพบุรี","NAME2":"เมืองลพบุรี","NAME3":"งิ้วราย","NAME1_EN":"Lop Buri","NAME2_EN":"Mueang Lop Buri","NAME3_EN":"Ngio Rai","POPULATION":null,"HOUSE":null,"VILLAGES":12},"geometry":{"type":"Polygon","coordinates":[[[100.613088,14.722388],[100.580508,14.723392],[100.56961,14.710242],[100.581862,14.684353],[100.611513,14.696858],[100.613088,14.722388]]]}},{"type":"Feature","id":"160111","properties":{"ADMIN_ID1":"16","ADMIN_ID2":"1601","ADMIN_ID3":"160111","NAME1":"ลพบุรี","NAME2":"เมืองลพบุรี","NAME3":"ดอนโพธิ์","NAME1_EN":"Lop Buri","NAME2_EN":"Mueang Lop Buri","NAME3_EN":"Don Pho","POPULATION":null,"HOUSE":null,"VILLAGES":8},"geometry":{"type":"Polygon","coordinates":[[[100.628999,14.720576],[100.613088,14.722388],[100.611513,14.696858],[100.614351,14.647072],[100.630532,14.649994],[100.657015,14.704448],[100.651302,14.710298],[100.628999,14.720576]]]}},{"type":"Feature","id":"160112","properties":{"ADMIN_ID1":"16","ADMIN_ID2":"1601","ADMIN_ID3":"160112","NAME1":"ลพบุรี","NAME2":"เมืองลพบุรี","NAME3":"ตะลุง","NAME1_EN":"Lop Buri","NAME2_EN":"Mueang Lop Buri","NAME3_EN":"Talung","POPULATION":null,"HOUSE":null,"VILLAGES":13},"geometry":{"type":"Polygon","coordinates":[[[100.624648,14.746725],[100.578129,14.751597],[100.572117,14.748548],[100.580508,14.723392],[100.613088,14.722388],[100.628999,14.720576],[100.624648,14.746725]]]}},{"type":"Feature","id":"160114","properties":{"ADMIN_ID1":"16","ADMIN_ID2":"1601","ADMIN_ID3":"160114","NAME1":"ลพบุรี","NAME2":"เมืองลพบุรี","NAME3":"ท่าแค","NAME1_EN":"Lop Buri","NAME2_EN":"Mueang Lop Buri","NAME3_EN":"Tha Khae","POPULATION":null,"HOUSE":null,"VILLAGES":10},"geometry":{"type":"Polygon","coordinates":[[[100.640466,14.857154],[100.597656,14.886609],[100.595699,14.843708],[100.60634,14.840449],[100.642948,14.845787],[100.640466,14.857154]]]}},{"type":"Feature","id":"160115","properties":{"ADMIN_ID1":"16","ADMIN_ID2":"1601","ADMIN_ID3":"160115","NAME1":"ลพบุรี","NAME2":"เมืองลพบุรี","NAME3":"ท่าศาลา","NAME1_EN":"Lop Buri","NAME2_EN":"Mueang Lop Buri","NAME3_EN":"Tha Sala","POPULATION":null,"HOUSE":null,"VILLAGES":8},"geometry":{"type":"Polygon","coordinates":[[[100.689153,14.780009],[100.702082,14.811217],[100.65837,14.799469],[100.661912,14.789609],[100.689153,14.780009]]]}},{"type":"Feature","id":"160116","properties":{"ADMIN_ID1":"16","ADMIN_ID2":"1601","ADMIN_ID3":"160116","NAME1":"ลพบุรี","NAME2":"เมืองลพบุรี","NAME3":"นิคมสร้างตนเอง","NAME1_EN":"Lop Buri","NAME2_EN":"Mueang Lop Buri","NAME3_EN":"Nikhom Sang Ton-Eng","POPULATION":null,"HOUSE":null,"VILLAGES":11},"geometry":{"type":"Polygon","coordinates":[[[100.766656,14.796589],[100.778968,14.84887],[100.741348,14.897669],[100.683029,14.856069],[100.702082,14.811217],[100.689153,14.780009],[100.712191,14.761876],[100.724533,14.76006],[100.766656,14.796589]]]}},{"type":"Feature","id":"160117","properties":{"ADMIN_ID1":"16","ADMIN_ID2":"1601","ADMIN_ID3":"160117","NAME1":"ลพบุรี","NAME2":"เมืองลพบุรี","NAME3":"บางขันหมาก","NAME1_EN":"Lop Buri","NAME2_EN":"Mueang Lop Buri","NAME3_EN":"Bang Khan Mak","POPULATION":null,"HOUSE":null,"VILLAGES":12},"geometry":{"type":"Polygon","coordinates":[[[100.595699,14.843708],[100.558217,14.885633],[100.544365,14.842966],[100.579046,14.785904],[100.594172,14.798112],[100.595699,14.843708]]]}},{"type":"Feature","id":"160118","properties":{"ADMIN_ID1":"16","ADMIN_ID2":"1601","ADMIN_ID3":"160118","NAME1":"ลพบุรี","NAME2":"เมืองลพบุรี","NAME3":"บ้านข่อย","NAME1_EN":"Lop Buri","NAME2_EN":"Mueang Lop Buri","NAME3_EN":"Ban Khoi","POPULATION":null,"HOUSE":null,"VILLAGES":12},"geometry":{"type":"Polygon","coordinates":[[[100.54638,14.698777],[100.524409,14.704494],[100.50834,14.673195],[100.53559,14.666542],[100.54129,14.669643],[100.54638,14.698777]]]}},{"type":"Feature","id":"160119","properties":{"ADMIN_ID1":"16","ADMIN_ID2":"1601","ADMIN_ID3":"160119","NAME1":"ลพบุรี","NAME2":"เมืองลพบุรี","NAME3":"ท้ายตลาด","NAME1_EN":"Lop Buri","NAME2_EN":"Mueang Lop Buri","NAME3_EN":"Thai Talat","POPULATION":null,"HOUSE":null,"VILLAGES":7},"geometry":{"type":"Polygon","coordinates":[[[100.580508,14.723392],[100.572117,14.748548],[100.54638,14.698777],[100.56961,14.710242],[100.580508,14.723392]]]}},{"type":"Feature","id":"160120","properties":{"ADMIN_ID1":"16","ADMIN_ID2":"1601","ADMIN_ID3":"160120","NAME1":"ลพบุรี","NAME2":"เมืองลพบุรี","NAME3":"ป่าตาล","NAME1_EN":"Lop Buri","NAME2_EN":"Mueang Lop Buri","NAME3_EN":"Pa Tan","POPULATION":null,"HOUSE":null,"VILLAGES":8},"geometry":{"type":"Polygon","coordinates":[[[100.661912,14.789609],[100.65837,14.799469],[100.615998,14.79608],[100.616189,14.795087],[100.630219,14.773823],[100.664442,14.741226],[100.661912,14.789609]]]}},{"type":"Feature","id":"160121","properties":{"ADMIN_ID1":"16","ADMIN_ID2":"1601","ADMIN_ID3":"160121","NAME1":"ลพบุรี","NAME2":"เมืองลพบุรี","NAME3":"พรหมมาสตร์","NAME1_EN":"Lop Buri","NAME2_EN":"Mueang Lop Buri","NAME3_EN":"Phrommat","POPULATION":null,"HOUSE":null,"VILLAGES":8},"geometry":{"type":"Polygon","coordinates":[[[100.60634,14.840449],[100.595699,14.843708],[100.594172,14.798112],[100.606883,14.796632],[100.613225,14.808808],[100.610016,14.82357],[100.60634,14.840449]]]}},{"type":"Feature","id":"160122","properties":{"ADMIN_ID1":"16","ADMIN_ID2":"1601","ADMIN_ID3":"160122","NAME1":"ลพบุรี","NAME2":"เมืองลพบุรี","NAME3":"โพธิ์เก้าต้น","NAME1_EN":"Lop Buri","NAME2_EN":"Mueang Lop Buri","NAME3_EN":"Pho Kao Ton","POPULATION":null,"HOUSE":null,"VILLAGES":13},"geometry":{"type":"Polygon","coordinates":[[[100.606883,14.796632],[100.594172,14.798112],[100.579046,14.785904],[100.565989,14.771592],[100.578129,14.751597],[100.624648,14.746725],[100.630219,14.773823],[100.616189,14.795087],[100.606883,14.796632]]]}},{"type":"Feature","id":"160123","properties":{"ADMIN_ID1":"16","ADMIN_ID2":"1601","ADMIN_ID3":"160123","NAME1":"ลพบุรี","NAME2":"เมืองลพบุรี","NAME3":"โพธิ์ตรุ","NAME1_EN":"Lop Buri","NAME2_EN":"Mueang Lop Buri","NAME3_EN":"Pho Tru","POPULATION":null,"HOUSE":null,"VILLAGES":8},"geometry":{"type":"Polygon","coordinates":[[[100.578129,14.751597],[100.565989,14.771592],[100.562785,14.766118],[100.516451,14.737134],[100.524409,14.704494],[100.54638,14.698777],[100.572117,14.748548],[100.578129,14.751597]]]}},{"type":"Feature","id":"160124","properties":{"ADMIN_ID1":"16","ADMIN_ID2":"1601","ADMIN_ID3":"160124","NAME1":"ลพบุรี","NAME2":"เมืองลพบุรี","NAME3":"สี่คลอง","NAME1_EN":"Lop Buri","NAME2_EN":"Mueang Lop Buri","NAME3_EN":"Si Khlong","POPULATION":null,"HOUSE":null,"VILLAGES":6},"geometry":{"type":"Polygon","coordinates":[[[100.581862,14.684353],[100.56961,14.710242],[100.54638,14.698777],[100.54129,14.669643],[100.566218,14.662726],[100.568421,14.662296],[100.580723,14.664361],[100.581862,14.684353]]]}},{"type":"Feature","id":"160125","properties":{"ADMIN_ID1":"16","ADMIN_ID2":"1601","ADMIN_ID3":"160125","NAME1":"ลพบุรี","NAME2":"เมืองลพบุรี","NAME3":"ถนนใหญ่","NAME1_EN":"Lop Buri","NAME2_EN":"Mueang Lop Buri","NAME3_EN":"Thanon Yai","POPULATION":null,"HOUSE":null,"VILLAGES":6},"geometry":{"type":"Polygon","coordinates":[[[100.642948,14.845787],[100.60634,14.840449],[100.610016,14.82357],[100.647695,14.823907],[100.642948,14.845787]]]}},{"type":"Feature","id":"160201","properties":{"ADMIN_ID1":"16","ADMIN_ID2":"1602","ADMIN_ID3":"160201","NAME1":"ลพบุรี","NAME2":"พัฒนานิคม","NAME3":"พัฒนานิคม","NAME1_EN":"Lop Buri","NAME2_EN":"Phatthana Nikhom","NAME3_EN":"Phatthana Nikhom","POPULATION":null,"HOUSE":null,"VILLAGES":14},"geometry":{"type":"Polygon","coordinates":[[[101.011695,14.925076],[100.968589,14.962812],[100.909983,14.960411],[100.929018,14.834726],[100.957021,14.834596],[101.019226,14.817953],[101.017501,14.876498],[101.011695,14.925076]]]}},{"type":"Feature","id":"160202","properties":{"ADMIN_ID1":"16","ADMIN_ID2":"1602","ADMIN_ID3":"160202","NAME1":"ลพบุรี","NAME2":"พัฒนานิคม","NAME3":"ช่องสาริกา","NAME1_EN":"Lop Buri","NAME2_EN":"Phatthana Nikhom","NAME3_EN":"Chong Sarika","POPULATION":null,"HOUSE":null,"VILLAGES":13},"geometry":{"type":"Polygon","coordinates":[[[100.929018,14.834726],[100.898141,14.844648],[100.862293,14.840567],[100.848128,14.797202],[100.852192,14.78691],[100.943635,14.741983],[100.959475,14.743769],[100.966271,14.751516],[100.957021,14.834596],[100.929018,14.834726]]]}},{"type":"Feature","id":"160203","properties":{"ADMIN_ID1":"16","ADMIN_ID2":"1602","ADMIN_ID3":"160203","NAME1":"ลพบุรี","NAME2":"พัฒนานิคม","NAME3":"มะนาวหวาน","NAME1_EN":"Lop Buri","NAME2_EN":"Phatthana Nikhom","NAME3_EN":"Manao Wan","POPULATION":null,"HOUSE":null,"VILLAGES":8},"geometry":{"type":"Polygon","coordinates":[[[101.119319,14.980723],[101.072328,14.996999],[101.065574,14.967513],[101.011695,14.925076],[101.017501,14.876498],[101.053651,14.921733],[101.084855,14.890718],[101.090769,14.899829],[101.119319,14.980723]]]}},{"type":"Feature","id":"160204","properties":{"ADMIN_ID1":"16","ADMIN_ID2":"1602","ADMIN_ID3":"160204","NAME1":"ลพบุรี","NAME2":"พัฒนานิคม","NAME3":"ดีลัง","NAME1_EN":"Lop Buri","NAME2_EN":"Phatthana Nikhom","NAME3_EN":"Di Lang","POPULATION":null,"HOUSE":null,"VILLAGES":7},"geometry":{"type":"Polygon","coordinates":[[[100.865577,14.973],[100.823937,14.976643],[100.826495,14.936297],[100.879948,14.903567],[100.898141,14.844648],[100.929018,14.834726],[100.909983,14.960411],[100.874031,14.971639],[100.865577,14.973]]]}},{"type":"Feature","id":"160205","properties":{"ADMIN_ID1":"16","ADMIN_ID2":"1602","ADMIN_ID3":"160205","NAME1":"ลพบุรี","NAME2":"พัฒนานิคม","NAME3":"โคกสลุง","NAME1_EN":"Lop Buri","NAME2_EN":"Phatthana Nikhom","NAME3_EN":"Khok Salung","POPULATION":null,"HOUSE":null,"VILLAGES":11},"geometry":{"type":"Polygon","coordinates":[[[100.969272,15.056295],[100.903394,15.039148],[100.874031,14.971639],[100.909983,14.960411],[100.968589,14.962812],[101.011695,14.925076],[101.065574,14.967513],[101.041231,15.025295],[101.04164,15.029857],[100.969272,15.056295]]]}},{"type":"Feature","id":"160206","properties":{"ADMIN_ID1":"16","ADMIN_ID2":"1602","ADMIN_ID3":"160206","NAME1":"ลพบุรี","NAME2":"พัฒนานิคม","NAME3":"ชอนน้อย","NAME1_EN":"Lop Buri","NAME2_EN":"Phatthana Nikhom","NAME3_EN":"Chon Noi","POPULATION":null,"HOUSE":null,"VILLAGES":5},"geometry":{"type":"Polygon","coordinates":[[[101.019226,14.817953],[100.957021,14.834596],[100.966271,14.751516],[100.991864,14.740451],[101.023881,14.809936],[101.019226,14.817953]]]}},{"type":"Feature","id":"160207","properties":{"ADMIN_ID1":"16","ADMIN_ID2":"1602","ADMIN_ID3":"160207","NAME1":"ลพบุรี","NAME2":"พัฒนานิคม","NAME3":"หนองบัว","NAME1_EN":"Lop Buri","NAME2_EN":"Phatthana Nikhom","NAME3_EN":"Nong Bua","POPULATION":null,"HOUSE":null,"VILLAGES":11},"geometry":{"type":"Polygon","coordinates":[[[101.084855,14.890718],[101.053651,14.921733],[101.017501,14.876498],[101.019226,14.817953],[101.023881,14.809936],[101.060983,14.759726],[101.072695,14.791189],[101.09317,14.84955],[101.084855,14.890718]]]}},{"type":"Feature","id":"160208","properties":{"ADMIN_ID1":"16","ADMIN_ID2":"1602","ADMIN_ID3":"160208","NAME1":"ลพบุรี","NAME2":"พัฒนานิคม","NAME3":"ห้วยขุนราม","NAME1_EN":"Lop Buri","NAME2_EN":"Phatthana Nikhom","NAME3_EN":"Huai Khun Ram","POPULATION":null,"HOUSE":null,"VILLAGES":11},"geometry":{"type":"Polygon","coordinates":[[[101.272673,14.993821],[101.206223,14.983806],[101.158371,14.920344],[101.182628,14.916347],[101.219313,14.919249],[101.257765,14.912489],[101.328668,14.965006],[101.331572,14.982755],[101.272673,14.993821]]]}},{"type":"Feature","id":"160209","properties":{"ADMIN_ID1":"16","ADMIN_ID2":"1602","ADMIN_ID3":"160209","NAME1":"ลพบุรี","NAME2":"พัฒนานิคม","NAME3":"น้ำสุด","NAME1_EN":"Lop Buri","NAME2_EN":"Phatthana Nikhom","NAME3_EN":"Nam Sut","POPULATION":null,"HOUSE":null,"VILLAGES":9},"geometry":{"type":"Polygon","coordinates":[[[101.201864,14.996214],[101.129839,14.99809],[101.119319,14.980723],[101.090769,14.899829],[101.182628,14.916347],[101.158371,14.920344],[101.206223,14.983806],[101.201864,14.996214]]]}},{"type":"Feature","id":"160301","properties":{"ADMIN_ID1":"16","ADMIN_ID2":"1603","ADMIN_ID3":"160301","NAME1":"ลพบุรี","NAME2":"โคกสำโรง","NAME3":"โคกสำโรง","NAME1_EN":"Lop Buri","NAME2_EN":"Khok Samrong","NAME3_EN":"Khok Samrong","POPULATION":null,"HOUSE":null,"VILLAGES":16},"geometry":{"type":"Polygon","coordinates":[[[100.759286,15.084408],[100.712987,15.103508],[100.705055,15.098831],[100.697294,15.087298],[100.703329,15.055308],[100.71733,15.03963],[100.767203,15.071671],[100.759286,15.084408]]]}},{"type":"Feature","id":"160302","properties":{"ADMIN_ID1":"16","ADMIN_ID2":"1603","ADMIN_ID3":"160302","NAME1":"ลพบุรี","NAME2":"โคกสำโรง","NAME3":"เกาะแก้ว","NAME1_EN":"Lop Buri","NAME2_EN":"Khok Samrong","NAME3_EN":"Ko Kaeo","POPULATION":null,"HOUSE":null,"VILLAGES":11},"geometry":{"type":"Polygon","coordinates":[[[100.76661,15.167611],[100.712424,15.178831],[100.731491,15.124354],[100.712987,15.103508],[100.759286,15.084408],[100.758182,15.096173],[100.76661,15.167611]]]}},{"type":"Feature","id":"160303","properties":{"ADMIN_ID1":"16","ADMIN_ID2":"1603","ADMIN_ID3":"160303","NAME1":"ลพบุรี","NAME2":"โคกสำโรง","NAME3":"ถลุงเหล็ก","NAME1_EN":"Lop Buri","NAME2_EN":"Khok Samrong","NAME3_EN":"Thalung Lek","POPULATION":null,"HOUSE":null,"VILLAGES":8},"geometry":{"type":"Polygon","coordinates":[[[100.697294,15.087298],[100.657862,15.066015],[100.656223,15.063388],[100.685553,15.04535],[100.703329,15.055308],[100.697294,15.087298]]]}},{"type":"Feature","id":"160304","properties":{"ADMIN_ID1":"16","ADMIN_ID2":"1603","ADMIN_ID3":"160304","NAME1":"ลพบุรี","NAME2":"โคกสำโรง","NAME3":"หลุมข้าว","NAME1_EN":"Lop Buri","NAME2_EN":"Khok Samrong","NAME3_EN":"Lum Khao","POPULATION":null,"HOUSE":null,"VILLAGES":11},"geometry":{"type":"Polygon","coordinates":[[[100.685553,15.04535],[100.656223,15.063388],[100.623551,15.036695],[100.610608,15.036928],[100.62377,14.975041],[100.669344,15.022507],[100.685553,15.04535]]]}},{"type":"Feature","id":"160305","properties":{"ADMIN_ID1":"16","ADMIN_ID2":"1603","ADMIN_ID3":"160305","NAME1":"ลพบุรี","NAME2":"โคกสำโรง","NAME3":"ห้วยโป่ง","NAME1_EN":"Lop Buri","NAME2_EN":"Khok Samrong","NAME3_EN":"Huai Pong","POPULATION":null,"HOUSE":null,"VILLAGES":12},"geometry":{"type":"Polygon","coordinates":[[[100.726499,14.986395],[100.669344,15.022507],[100.62377,14.975041],[100.621315,14.96845],[100.611389,14.936159],[100.72924,14.953152],[100.726499,14.986395]]]}},{"type":"Feature","id":"160306","properties":{"ADMIN_ID1":"16","ADMIN_ID2":"1603","ADMIN_ID3":"160306","NAME1":"ลพบุรี","NAME2":"โคกสำโรง","NAME3":"คลองเกตุ","NAME1_EN":"Lop Buri","NAME2_EN":"Khok Samrong","NAME3_EN":"Khlong Ket","POPULATION":null,"HOUSE":null,"VILLAGES":10},"geometry":{"type":"Polygon","coordinates":[[[100.823937,14.976643],[100.783396,15.018187],[100.767203,15.071671],[100.71733,15.03963],[100.726499,14.986395],[100.72924,14.953152],[100.751225,14.932597],[100.826495,14.936297],[100.823937,14.976643]]]}},{"type":"Feature","id":"160307","properties":{"ADMIN_ID1":"16","ADMIN_ID2":"1603","ADMIN_ID3":"160307","NAME1":"ลพบุรี","NAME2":"โคกสำโรง","NAME3":"สะแกราบ","NAME1_EN":"Lop Buri","NAME2_EN":"Khok Samrong","NAME3_EN":"Sakae Rap","POPULATION":null,"HOUSE":null,"VILLAGES":15},"geometry":{"type":"Polygon","coordinates":[[[100.775431,15.157106],[100.76661,15.167611],[100.758182,15.096173],[100.810348,15.096869],[100.840507,15.084893],[100.824825,15.150968],[100.785102,15.141257],[100.775431,15.157106]]]}},{"type":"Feature","id":"160308","properties":{"ADMIN_ID1":"16","ADMIN_ID2":"1603","ADMIN_ID3":"160308","NAME1":"ลพบุรี","NAME2":"โคกสำโรง","NAME3":"เพนียด","NAME1_EN":"Lop Buri","NAME2_EN":"Khok Samrong","NAME3_EN":"Phaniat","POPULATION":null,"HOUSE":null,"VILLAGES":10},"geometry":{"type":"Polygon","coordinates":[[[100.865577,14.973],[100.861708,15.008077],[100.810348,15.096869],[100.758182,15.096173],[100.759286,15.084408],[100.767203,15.071671],[100.783396,15.018187],[100.823937,14.976643],[100.865577,14.973]]]}},{"type":"Feature","id":"160309","properties":{"ADMIN_ID1":"16","ADMIN_ID2":"1603","ADMIN_ID3":"160309","NAME1":"ลพบุรี","NAME2":"โคกสำโรง","NAME3":"วังเพลิง","NAME1_EN":"Lop Buri","NAME2_EN":"Khok Samrong","NAME3_EN":"Wang Phloeng","POPULATION":null,"HOUSE":null,"VILLAGES":13},"geometry":{"type":"Polygon","coordinates":[[[100.9315,15.145871],[100.887573,15.091474],[100.840507,15.084893],[100.810348,15.096869],[100.861708,15.008077],[100.865577,14.973],[100.874031,14.971639],[100.903394,15.039148],[100.932768,15.102403],[100.9315,15.145871]]]}},{"type":"Feature","id":"160310","properties":{"ADMIN_ID1":"16","ADMIN_ID2":"1603","ADMIN_ID3":"160310","NAME1":"ลพบุรี","NAME2":"โคกสำโรง","NAME3":"ดงมะรุม","NAME1_EN":"Lop Buri","NAME2_EN":"Khok Samrong","NAME3_EN":"Dong Marum","POPULATION":null,"HOUSE":null,"VILLAGES":12},"geometry":{"type":"Polygon","coordinates":[[[100.9315,15.145871],[100.93475,15.166011],[100.898442,15.148404],[100.826748,15.153315],[100.824825,15.150968],[100.840507,15.084893],[100.887573,15.091474],[100.9315,15.145871]]]}},{"type":"Feature","id":"160318","properties":{"ADMIN_ID1":"16","ADMIN_ID2":"1603","ADMIN_ID3":"160318","NAME1":"ลพบุรี","NAME2":"โคกสำโรง","NAME3":"วังขอนขว้าง","NAME1_EN":"Lop Buri","NAME2_EN":"Khok Samrong","NAME3_EN":"Wang Khon Khwang","POPULATION":null,"HOUSE":null,"VILLAGES":6},"geometry":{"type":"Polygon","coordinates":[[[100.703329,15.055308],[100.685553,15.04535],[100.669344,15.022507],[100.726499,14.986395],[100.71733,15.03963],[100.703329,15.055308]]]}},{"type":"Feature","id":"160320","properties":{"ADMIN_ID1":"16","ADMIN_ID2":"1603","ADMIN_ID3":"160320","NAME1":"ลพบุรี","NAME2":"โคกสำโรง","NAME3":"วังจั่น","NAME1_EN":"Lop Buri","NAME2_EN":"Khok Samrong","NAME3_EN":"Wang Chan","POPULATION":null,"HOUSE":null,"VILLAGES":7},"geometry":{"type":"Polygon","coordinates":[[[100.705055,15.098831],[100.68281,15.13036],[100.643397,15.129926],[100.657862,15.066015],[100.697294,15.087298],[100.705055,15.098831]]]}},{"type":"Feature","id":"160322","properties":{"ADMIN_ID1":"16","ADMIN_ID2":"1603","ADMIN_ID3":"160322","NAME1":"ลพบุรี","NAME2":"โคกสำโรง","NAME3":"หนองแขม","NAME1_EN":"Lop Buri","NAME2_EN":"Khok Samrong","NAME3_EN":"Nong Khaem","POPULATION":null,"HOUSE":null,"VILLAGES":13},"geometry":{"type":"Polygon","coordinates":[[[100.712424,15.178831],[100.636399,15.141053],[100.640354,15.132508],[100.643397,15.129926],[100.68281,15.13036],[100.705055,15.098831],[100.712987,15.103508],[100.731491,15.124354],[100.712424,15.178831]]]}},{"type":"Feature","id":"160501","properties":{"ADMIN_ID1":"16","ADMIN_ID2":"1605","ADMIN_ID3":"160501","NAME1":"ลพบุรี","NAME2":"ท่าวุ้ง","NAME3":"ท่าวุ้ง","NAME1_EN":"Lop Buri","NAME2_EN":"Tha Wung","NAME3_EN":"Tha Wung","POPULATION":null,"HOUSE":null,"VILLAGES":12},"geometry":{"type":"Polygon","coordinates":[[[100.513007,14.833485],[100.464836,14.821689],[100.464213,14.820562],[100.482626,14.81131],[100.505183,14.793523],[100.513007,14.833485]]]}},{"type":"Feature","id":"160502","properties":{"ADMIN_ID1":"16","ADMIN_ID2":"1605","ADMIN_ID3":"160502","NAME1":"ลพบุรี","NAME2":"ท่าวุ้ง","NAME3":"บางคู้","NAME1_EN":"Lop Buri","NAME2_EN":"Tha Wung","NAME3_EN":"Bang Khu","POPULATION":null,"HOUSE":null,"VILLAGES":15},"geometry":{"type":"Polygon","coordinates":[[[100.535299,14.826958],[100.51398,14.833907],[100.513007,14.833485],[100.505183,14.793523],[100.502846,14.785226],[100.543877,14.776958],[100.535299,14.826958]]]}},{"type":"Feature","id":"160503","properties":{"ADMIN_ID1":"16","ADMIN_ID2":"1605","ADMIN_ID3":"160503","NAME1":"ลพบุรี","NAME2":"ท่าวุ้ง","NAME3":"โพตลาดแก้ว","NAME1_EN":"Lop Buri","NAME2_EN":"Tha Wung","NAME3_EN":"Pho Talat Kaeo","POPULATION":null,"HOUSE":null,"VILLAGES":10},"geometry":{"type":"Polygon","coordinates":[[[100.579046,14.785904],[100.544365,14.842966],[100.535299,14.826958],[100.543877,14.776958],[100.562785,14.766118],[100.565989,14.771592],[100.579046,14.785904]]]}},{"type":"Feature","id":"160504","properties":{"ADMIN_ID1":"16","ADMIN_ID2":"1605","ADMIN_ID3":"160504","NAME1":"ลพบุรี","NAME2":"ท่าวุ้ง","NAME3":"บางลี่","NAME1_EN":"Lop Buri","NAME2_EN":"Tha Wung","NAME3_EN":"Bang Li","POPULATION":null,"HOUSE":null,"VILLAGES":16},"geometry":{"type":"Polygon","coordinates":[[[100.558217,14.885633],[100.563123,14.942044],[100.519698,14.927803],[100.524315,14.886303],[100.514809,14.856926],[100.51398,14.833907],[100.535299,14.826958],[100.544365,14.842966],[100.558217,14.885633]]]}},{"type":"Feature","id":"160505","properties":{"ADMIN_ID1":"16","ADMIN_ID2":"1605","ADMIN_ID3":"160505","NAME1":"ลพบุรี","NAME2":"ท่าวุ้ง","NAME3":"บางงา","NAME1_EN":"Lop Buri","NAME2_EN":"Tha Wung","NAME3_EN":"Bang Nga","POPULATION":null,"HOUSE":null,"VILLAGES":13},"geometry":{"type":"Polygon","coordinates":[[[100.466653,14.883156],[100.424537,14.898432],[100.426794,14.888317],[100.454319,14.857026],[100.464836,14.821689],[100.513007,14.833485],[100.51398,14.833907],[100.514809,14.856926],[100.497569,14.86426],[100.466653,14.883156]]]}},{"type":"Feature","id":"160506","properties":{"ADMIN_ID1":"16","ADMIN_ID2":"1605","ADMIN_ID3":"160506","NAME1":"ลพบุรี","NAME2":"ท่าวุ้ง","NAME3":"โคกสลุด","NAME1_EN":"Lop Buri","NAME2_EN":"Tha Wung","NAME3_EN":"Khok Salut","POPULATION":null,"HOUSE":null,"VILLAGES":7},"geometry":{"type":"Polygon","coordinates":[[[100.497569,14.86426],[100.494443,14.905721],[100.466653,14.883156],[100.497569,14.86426]]]}},{"type":"Feature","id":"160507","properties":{"ADMIN_ID1":"16","ADMIN_ID2":"1605","ADMIN_ID3":"160507","NAME1":"ลพบุรี","NAME2":"ท่าวุ้ง","NAME3":"เขาสมอคอน","NAME1_EN":"Lop Buri","NAME2_EN":"Tha Wung","NAME3_EN":"Khao Samo Khon","POPULATION":null,"HOUSE":null,"VILLAGES":13},"geometry":{"type":"Polygon","coordinates":[[[100.466144,14.917227],[100.422001,14.92243],[100.424537,14.898432],[100.466653,14.883156],[100.494443,14.905721],[100.524315,14.886303],[100.519698,14.927803],[100.466144,14.917227]]]}},{"type":"Feature","id":"160508","properties":{"ADMIN_ID1":"16","ADMIN_ID2":"1605","ADMIN_ID3":"160508","NAME1":"ลพบุรี","NAME2":"ท่าวุ้ง","NAME3":"หัวสำโรง","NAME1_EN":"Lop Buri","NAME2_EN":"Tha Wung","NAME3_EN":"Hua Samrong","POPULATION":null,"HOUSE":null,"VILLAGES":15},"geometry":{"type":"Polygon","coordinates":[[[100.505183,14.793523],[100.482626,14.81131],[100.468219,14.798216],[100.472255,14.768595],[100.488093,14.748134],[100.520753,14.748152],[100.502846,14.785226],[100.505183,14.793523]]]}},{"type":"Feature","id":"160509","properties":{"ADMIN_ID1":"16","ADMIN_ID2":"1605","ADMIN_ID3":"160509","NAME1":"ลพบุรี","NAME2":"ท่าวุ้ง","NAME3":"ลาดสาลี่","NAME1_EN":"Lop Buri","NAME2_EN":"Tha Wung","NAME3_EN":"Lat Sali","POPULATION":null,"HOUSE":null,"VILLAGES":7},"geometry":{"type":"Polygon","coordinates":[[[100.543877,14.776958],[100.502846,14.785226],[100.520753,14.748152],[100.516451,14.737134],[100.562785,14.766118],[100.543877,14.776958]]]}},{"type":"Feature","id":"160510","properties":{"ADMIN_ID1":"16","ADMIN_ID2":"1605","ADMIN_ID3":"160510","NAME1":"ลพบุรี","NAME2":"ท่าวุ้ง","NAME3":"บ้านเบิก","NAME1_EN":"Lop Buri","NAME2_EN":"Tha Wung","NAME3_EN":"Ban Boek","POPULATION":null,"HOUSE":null,"VILLAGES":11},"geometry":{"type":"Polygon","coordinates":[[[100.520753,14.748152],[100.488093,14.748134],[100.45794,14.721096],[100.475456,14.703125],[100.486577,14.699679],[100.495408,14.700518],[100.504027,14.685421],[100.503414,14.66992],[100.50834,14.673195],[100.524409,14.704494],[100.516451,14.737134],[100.520753,14.748152]]]}},{"type":"Feature","id":"160511","properties":{"ADMIN_ID1":"16","ADMIN_ID2":"1605","ADMIN_ID3":"160511","NAME1":"ลพบุรี","NAME2":"ท่าวุ้ง","NAME3":"มุจลินท์","NAME1_EN":"Lop Buri","NAME2_EN":"Tha Wung","NAME3_EN":"Mutchalin","POPULATION":null,"HOUSE":null,"VILLAGES":9},"geometry":{"type":"Polygon","coordinates":[[[100.514809,14.856926],[100.524315,14.886303],[100.494443,14.905721],[100.497569,14.86426],[100.514809,14.856926]]]}},{"type":"Feature","id":"160601","properties":{"ADMIN_ID1":"16","ADMIN_ID2":"1606","ADMIN_ID3":"160601","NAME1":"ลพบุรี","NAME2":"บ้านหมี่","NAME3":"ไผ่ใหญ่","NAME1_EN":"Lop Buri","NAME2_EN":"Ban Mi","NAME3_EN":"Phai Yai","POPULATION":null,"HOUSE":null,"VILLAGES":6},"geometry":{"type":"Polygon","coordinates":[[[100.474967,15.106757],[100.43216,15.071492],[100.427487,15.061087],[100.446712,15.055237],[100.497111,15.075242],[100.505272,15.075743],[100.474967,15.106757]]]}},{"type":"Feature","id":"160602","properties":{"ADMIN_ID1":"16","ADMIN_ID2":"1606","ADMIN_ID3":"160602","NAME1":"ลพบุรี","NAME2":"บ้านหมี่","NAME3":"บ้านทราย","NAME1_EN":"Lop Buri","NAME2_EN":"Ban Mi","NAME3_EN":"Ban Sai","POPULATION":null,"HOUSE":null,"VILLAGES":6},"geometry":{"type":"Polygon","coordinates":[[[100.597892,15.020289],[100.580357,15.085535],[100.569093,15.079974],[100.584784,15.00926],[100.597892,15.020289]]]}},{"type":"Feature","id":"160603","properties":{"ADMIN_ID1":"16","ADMIN_ID2":"1606","ADMIN_ID3":"160603","NAME1":"ลพบุรี","NAME2":"บ้านหมี่","NAME3":"บ้านกล้วย","NAME1_EN":"Lop Buri","NAME2_EN":"Ban Mi","NAME3_EN":"Ban Kluai","POPULATION":null,"HOUSE":null,"VILLAGES":5},"geometry":{"type":"Polygon","coordinates":[[[100.584784,15.00926],[100.569093,15.079974],[100.557281,15.070124],[100.576937,15.003103],[100.584784,15.00926]]]}},{"type":"Feature","id":"160604","properties":{"ADMIN_ID1":"16","ADMIN_ID2":"1606","ADMIN_ID3":"160604","NAME1":"ลพบุรี","NAME2":"บ้านหมี่","NAME3":"ดงพลับ","NAME1_EN":"Lop Buri","NAME2_EN":"Ban Mi","NAME3_EN":"Dong Phlap","POPULATION":null,"HOUSE":null,"VILLAGES":5},"geometry":{"type":"Polygon","coordinates":[[[100.640354,15.132508],[100.627168,15.09892],[100.623551,15.036695],[100.656223,15.063388],[100.657862,15.066015],[100.643397,15.129926],[100.640354,15.132508]]]}},{"type":"Feature","id":"160605","properties":{"ADMIN_ID1":"16","ADMIN_ID2":"1606","ADMIN_ID3":"160605","NAME1":"ลพบุรี","NAME2":"บ้านหมี่","NAME3":"บ้านชี","NAME1_EN":"Lop Buri","NAME2_EN":"Ban Mi","NAME3_EN":"Ban Chi","POPULATION":null,"HOUSE":null,"VILLAGES":12},"geometry":{"type":"Polygon","coordinates":[[[100.531425,14.97584],[100.515342,14.977063],[100.475178,14.959761],[100.466144,14.917227],[100.519698,14.927803],[100.531425,14.97584]]]}},{"type":"Feature","id":"160606","properties":{"ADMIN_ID1":"16","ADMIN_ID2":"1606","ADMIN_ID3":"160606","NAME1":"ลพบุรี","NAME2":"บ้านหมี่","NAME3":"พุคา","NAME1_EN":"Lop Buri","NAME2_EN":"Ban Mi","NAME3_EN":"Phu Kha","POPULATION":null,"HOUSE":null,"VILLAGES":4},"geometry":{"type":"Polygon","coordinates":[[[100.621315,14.96845],[100.577134,14.975322],[100.587884,14.925716],[100.611389,14.936159],[100.621315,14.96845]]]}},{"type":"Feature","id":"160607","properties":{"ADMIN_ID1":"16","ADMIN_ID2":"1606","ADMIN_ID3":"160607","NAME1":"ลพบุรี","NAME2":"บ้านหมี่","NAME3":"หินปัก","NAME1_EN":"Lop Buri","NAME2_EN":"Ban Mi","NAME3_EN":"Hin Pak","POPULATION":null,"HOUSE":null,"VILLAGES":10},"geometry":{"type":"Polygon","coordinates":[[[100.605434,15.102093],[100.580357,15.085535],[100.597892,15.020289],[100.610608,15.036928],[100.605434,15.102093]]]}},{"type":"Feature","id":"160608","properties":{"ADMIN_ID1":"16","ADMIN_ID2":"1606","ADMIN_ID3":"160608","NAME1":"ลพบุรี","NAME2":"บ้านหมี่","NAME3":"บางพึ่ง","NAME1_EN":"Lop Buri","NAME2_EN":"Ban Mi","NAME3_EN":"Bang Phueng","POPULATION":null,"HOUSE":null,"VILLAGES":9},"geometry":{"type":"Polygon","coordinates":[[[100.515342,14.977063],[100.505086,15.037627],[100.498056,15.034649],[100.471043,14.984872],[100.475178,14.959761],[100.515342,14.977063]]]}},{"type":"Feature","id":"160609","properties":{"ADMIN_ID1":"16","ADMIN_ID2":"1606","ADMIN_ID3":"160609","NAME1":"ลพบุรี","NAME2":"บ้านหมี่","NAME3":"หนองทรายขาว","NAME1_EN":"Lop Buri","NAME2_EN":"Ban Mi","NAME3_EN":"Nong Sai Khao","POPULATION":null,"HOUSE":null,"VILLAGES":7},"geometry":{"type":"Polygon","coordinates":[[[100.62377,14.975041],[100.610608,15.036928],[100.597892,15.020289],[100.584784,15.00926],[100.576937,15.003103],[100.571181,15.003027],[100.561086,14.994136],[100.577134,14.975322],[100.621315,14.96845],[100.62377,14.975041]]]}},{"type":"Feature","id":"160610","properties":{"ADMIN_ID1":"16","ADMIN_ID2":"1606","ADMIN_ID3":"160610","NAME1":"ลพบุรี","NAME2":"บ้านหมี่","NAME3":"บางกะพี้","NAME1_EN":"Lop Buri","NAME2_EN":"Ban Mi","NAME3_EN":"Bang Kaphi","POPULATION":null,"HOUSE":null,"VILLAGES":7},"geometry":{"type":"Polygon","coordinates":[[[100.627168,15.09892],[100.605434,15.102093],[100.610608,15.036928],[100.623551,15.036695],[100.627168,15.09892]]]}},{"type":"Feature","id":"160611","properties":{"ADMIN_ID1":"16","ADMIN_ID2":"1606","ADMIN_ID3":"160611","NAME1":"ลพบุรี","NAME2":"บ้านหมี่","NAME3":"หนองเต่า","NAME1_EN":"Lop Buri","NAME2_EN":"Ban Mi","NAME3_EN":"Nong Tao","POPULATION":null,"HOUSE":null,"VILLAGES":8},"geometry":{"type":"Polygon","coordinates":[[[100.577134,14.975322],[100.561086,14.994136],[100.531425,14.97584],[100.519698,14.927803],[100.563123,14.942044],[100.587884,14.925716],[100.577134,14.975322]]]}},{"type":"Feature","id":"160612","properties":{"ADMIN_ID1":"16","ADMIN_ID2":"1606","ADMIN_ID3":"160612","NAME1":"ลพบุรี","NAME2":"บ้านหมี่","NAME3":"โพนทอง","NAME1_EN":"Lop Buri","NAME2_EN":"Ban Mi","NAME3_EN":"Phon Thong","POPULATION":null,"HOUSE":null,"VILLAGES":7},"geometry":{"type":"Polygon","coordinates":[[[100.557281,15.070124],[100.551089,15.070343],[100.544746,15.043309],[100.543535,15.036534],[100.571181,15.003027],[100.576937,15.003103],[100.557281,15.070124]]]}},{"type":"Feature","id":"160613","properties":{"ADMIN_ID1":"16","ADMIN_ID2":"1606","ADMIN_ID3":"160613","NAME1":"ลพบุรี","NAME2":"บ้านหมี่","NAME3":"บางขาม","NAME1_EN":"Lop Buri","NAME2_EN":"Ban Mi","NAME3_EN":"Bang Kham","POPULATION":null,"HOUSE":null,"VILLAGES":7},"geometry":{"type":"Polygon","coordinates":[[[100.471043,14.984872],[100.447298,14.996797],[100.449171,14.942712],[100.421284,14.929973],[100.422001,14.92243],[100.466144,14.917227],[100.475178,14.959761],[100.471043,14.984872]]]}},{"type":"Feature","id":"160614","properties":{"ADMIN_ID1":"16","ADMIN_ID2":"1606","ADMIN_ID3":"160614","NAME1":"ลพบุรี","NAME2":"บ้านหมี่","NAME3":"ดอนดึง","NAME1_EN":"Lop Buri","NAME2_EN":"Ban Mi","NAME3_EN":"Don Dueng","POPULATION":null,"HOUSE":null,"VILLAGES":8},"geometry":{"type":"Polygon","coordinates":[[[100.6276,15.18355],[100.582064,15.189065],[100.605434,15.102093],[100.627168,15.09892],[100.640354,15.132508],[100.636399,15.141053],[100.6276,15.18355]]]}},{"type":"Feature","id":"160615","properties":{"ADMIN_ID1":"16","ADMIN_ID2":"1606","ADMIN_ID3":"160615","NAME1":"ลพบุรี","NAME2":"บ้านหมี่","NAME3":"ชอนม่วง","NAME1_EN":"Lop Buri","NAME2_EN":"Ban Mi","NAME3_EN":"Chon Muang","POPULATION":null,"HOUSE":null,"VILLAGES":6},"geometry":{"type":"Polygon","coordinates":[[[100.620221,15.24271],[100.552294,15.191948],[100.567073,15.190378],[100.582064,15.189065],[100.6276,15.18355],[100.649426,15.203879],[100.620221,15.24271]]]}},{"type":"Feature","id":"160616","properties":{"ADMIN_ID1":"16","ADMIN_ID2":"1606","ADMIN_ID3":"160616","NAME1":"ลพบุรี","NAME2":"บ้านหมี่","NAME3":"หนองกระเบียน","NAME1_EN":"Lop Buri","NAME2_EN":"Ban Mi","NAME3_EN":"Nong Krabian","POPULATION":null,"HOUSE":null,"VILLAGES":9},"geometry":{"type":"Polygon","coordinates":[[[100.567073,15.190378],[100.552294,15.191948],[100.514477,15.145105],[100.493471,15.1212],[100.537591,15.108967],[100.567073,15.190378]]]}},{"type":"Feature","id":"160617","properties":{"ADMIN_ID1":"16","ADMIN_ID2":"1606","ADMIN_ID3":"160617","NAME1":"ลพบุรี","NAME2":"บ้านหมี่","NAME3":"สายห้วยแก้ว","NAME1_EN":"Lop Buri","NAME2_EN":"Ban Mi","NAME3_EN":"Sai Huai Kaeo","POPULATION":null,"HOUSE":null,"VILLAGES":7},"geometry":{"type":"Polygon","coordinates":[[[100.537591,15.108967],[100.493471,15.1212],[100.474967,15.106757],[100.505272,15.075743],[100.537247,15.074395],[100.537591,15.108967]]]}},{"type":"Feature","id":"160618","properties":{"ADMIN_ID1":"16","ADMIN_ID2":"1606","ADMIN_ID3":"160618","NAME1":"ลพบุรี","NAME2":"บ้านหมี่","NAME3":"มหาสอน","NAME1_EN":"Lop Buri","NAME2_EN":"Ban Mi","NAME3_EN":"Mahason","POPULATION":null,"HOUSE":null,"VILLAGES":8},"geometry":{"type":"Polygon","coordinates":[[[100.498056,15.034649],[100.497111,15.075242],[100.446712,15.055237],[100.446886,15.003178],[100.447298,14.996797],[100.471043,14.984872],[100.498056,15.034649]]]}},{"type":"Feature","id":"160619","properties":{"ADMIN_ID1":"16","ADMIN_ID2":"1606","ADMIN_ID3":"160619","NAME1":"ลพบุรี","NAME2":"บ้านหมี่","NAME3":"บ้านหมี่","NAME1_EN":"Lop Buri","NAME2_EN":"Ban Mi","NAME3_EN":"Ban Mi","POPULATION":null,"HOUSE":null,"VILLAGES":7},"geometry":{"type":"Polygon","coordinates":[[[100.543535,15.036534],[100.544746,15.043309],[100.533917,15.045959],[100.543535,15.036534]]]}},{"type":"Feature","id":"160620","properties":{"ADMIN_ID1":"16","ADMIN_ID2":"1606","ADMIN_ID3":"160620","NAME1":"ลพบุรี","NAME2":"บ้านหมี่","NAME3":"เชียงงา","NAME1_EN":"Lop Buri","NAME2_EN":"Ban Mi","NAME3_EN":"Chiang Nga","POPULATION":null,"HOUSE":null,"VILLAGES":10},"geometry":{"type":"Polygon","coordinates":[[[100.551089,15.070343],[100.537247,15.074395],[100.505272,15.075743],[100.497111,15.075242],[100.498056,15.034649],[100.505086,15.037627],[100.533917,15.045959],[100.544746,15.043309],[100.551089,15.070343]]]}},{"type":"Feature","id":"160621","properties":{"ADMIN_ID1":"16","ADMIN_ID2":"1606","ADMIN_ID3":"160621","NAME1":"ลพบุรี","NAME2":"บ้านหมี่","NAME3":"หนองเมือง","NAME1_EN":"Lop Buri","NAME2_EN":"Ban Mi","NAME3_EN":"Nong Mueang","POPULATION":null,"HOUSE":null,"VILLAGES":7},"geometry":{"type":"Polygon","coordinates":[[[100.582064,15.189065],[100.567073,15.190378],[100.537591,15.108967],[100.537247,15.074395],[100.551089,15.070343],[100.557281,15.070124],[100.569093,15.079974],[100.580357,15.085535],[100.605434,15.102093],[100.582064,15.189065]]]}},{"type":"Feature","id":"160622","properties":{"ADMIN_ID1":"16","ADMIN_ID2":"1606","ADMIN_ID3":"160622","NAME1":"ลพบุรี","NAME2":"บ้านหมี่","NAME3":"สนามแจง","NAME1_EN":"Lop Buri","NAME2_EN":"Ban Mi","NAME3_EN":"Sanam Chaeng","POPULATION":null,"HOUSE":null,"VILLAGES":9},"geometry":{"type":"Polygon","coordinates":[[[100.533917,15.045959],[100.505086,15.037627],[100.515342,14.977063],[100.531425,14.97584],[100.561086,14.994136],[100.571181,15.003027],[100.543535,15.036534],[100.533917,15.045959]]]}},{"type":"Feature","id":"161101","properties":{"ADMIN_ID1":"16","ADMIN_ID2":"1611","ADMIN_ID3":"161101","NAME1":"ลพบุรี","NAME2":"หนองม่วง","NAME3":"หนองม่วง","NAME1_EN":"Lop Buri","NAME2_EN":"Nong Muang","NAME3_EN":"Nong Muang","POPULATION":null,"HOUSE":null,"VILLAGES":10},"geometry":{"type":"Polygon","coordinates":[[[100.722521,15.305897],[100.620221,15.24271],[100.649426,15.203879],[100.682681,15.202924],[100.67991,15.251659],[100.713057,15.288008],[100.722521,15.305897]]]}},{"type":"Feature","id":"161102","properties":{"ADMIN_ID1":"16","ADMIN_ID2":"1611","ADMIN_ID3":"161102","NAME1":"ลพบุรี","NAME2":"หนองม่วง","NAME3":"บ่อทอง","NAME1_EN":"Lop Buri","NAME2_EN":"Nong Muang","NAME3_EN":"Bo Thong","POPULATION":null,"HOUSE":null,"VILLAGES":12},"geometry":{"type":"Polygon","coordinates":[[[100.633485,15.340541],[100.629882,15.340394],[100.59011,15.268859],[100.620221,15.24271],[100.722521,15.305897],[100.72323,15.32165],[100.668251,15.316108],[100.633485,15.340541]]]}},{"type":"Feature","id":"161103","properties":{"ADMIN_ID1":"16","ADMIN_ID2":"1611","ADMIN_ID3":"161103","NAME1":"ลพบุรี","NAME2":"หนองม่วง","NAME3":"ดงดินแดง","NAME1_EN":"Lop Buri","NAME2_EN":"Nong Muang","NAME3_EN":"Dong Din Daeng","POPULATION":null,"HOUSE":null,"VILLAGES":11},"geometry":{"type":"Polygon","coordinates":[[[100.690481,15.446338],[100.658888,15.435375],[100.633485,15.340541],[100.668251,15.316108],[100.72323,15.32165],[100.728881,15.347968],[100.727998,15.410204],[100.690481,15.446338]]]}},{"type":"Feature","id":"161104","properties":{"ADMIN_ID1":"16","ADMIN_ID2":"1611","ADMIN_ID3":"161104","NAME1":"ลพบุรี","NAME2":"หนองม่วง","NAME3":"ชอนสมบูรณ์","NAME1_EN":"Lop Buri","NAME2_EN":"Nong Muang","NAME3_EN":"Chon Sombun","POPULATION":null,"HOUSE":null,"VILLAGES":12},"geometry":{"type":"Polygon","coordinates":[[[100.728881,15.347968],[100.72323,15.32165],[100.722521,15.305897],[100.713057,15.288008],[100.761717,15.231592],[100.784981,15.23423],[100.824288,15.280659],[100.803988,15.31488],[100.749471,15.337065],[100.728881,15.347968]]]}},{"type":"Feature","id":"161105","properties":{"ADMIN_ID1":"16","ADMIN_ID2":"1611","ADMIN_ID3":"161105","NAME1":"ลพบุรี","NAME2":"หนองม่วง","NAME3":"ยางโทน","NAME1_EN":"Lop Buri","NAME2_EN":"Nong Muang","NAME3_EN":"Yang Thon","POPULATION":null,"HOUSE":null,"VILLAGES":10},"geometry":{"type":"Polygon","coordinates":[[[100.761717,15.231592],[100.713057,15.288008],[100.67991,15.251659],[100.682681,15.202924],[100.751678,15.208556],[100.76608,15.216765],[100.761717,15.231592]]]}},{"type":"Feature","id":"161106","properties":{"ADMIN_ID1":"16","ADMIN_ID2":"1611","ADMIN_ID3":"161106","NAME1":"ลพบุรี","NAME2":"หนองม่วง","NAME3":"ชอนสารเดช","NAME1_EN":"Lop Buri","NAME2_EN":"Nong Muang","NAME3_EN":"Chon Saradet","POPULATION":null,"HOUSE":null,"VILLAGES":11},"geometry":{"type":"Polygon","coordinates":[[[100.751678,15.208556],[100.682681,15.202924],[100.649426,15.203879],[100.6276,15.18355],[100.636399,15.141053],[100.712424,15.178831],[100.76661,15.167611],[100.775431,15.157106],[100.751678,15.208556]]]}}]}
